<?xml version="1.0" encoding="UTF-8"?>
<kml xmlns="http://www.opengis.net/kml/2.2" xmlns:gx="http://www.google.com/kml/ext/2.2" xmlns:kml="http://www.opengis.net/kml/2.2" xmlns:atom="http://www.w3.org/2005/Atom">
<Document>
	<name>blk2.kml</name>
	<StyleMap id="m_ylw-pushpin">
		<Pair>
			<key>normal</key>
			<styleUrl>#s_ylw-pushpin</styleUrl>
		</Pair>
		<Pair>
			<key>highlight</key>
			<styleUrl>#s_ylw-pushpin_hl</styleUrl>
		</Pair>
	</StyleMap>
	<Style id="s_ylw-pushpin">
		<IconStyle>
			<scale>1.1</scale>
			<Icon>
				<href>http://maps.google.com/mapfiles/kml/pushpin/ylw-pushpin.png</href>
			</Icon>
			<hotSpot x="20" y="2" xunits="pixels" yunits="pixels"/>
		</IconStyle>
		<PolyStyle>
			<color>1affffff</color>
		</PolyStyle>
	</Style>
	<Style id="s_ylw-pushpin_hl">
		<IconStyle>
			<scale>1.3</scale>
			<Icon>
				<href>http://maps.google.com/mapfiles/kml/pushpin/ylw-pushpin.png</href>
			</Icon>
			<hotSpot x="20" y="2" xunits="pixels" yunits="pixels"/>
		</IconStyle>
		<PolyStyle>
			<color>1affffff</color>
		</PolyStyle>
	</Style>
	<Placemark>
		<name>block2</name>
		<snippet></snippet>
		<styleUrl>#m_ylw-pushpin</styleUrl>
		<MultiGeometry>
			<Polygon>
				<tessellate>1</tessellate>
				<outerBoundaryIs>
					<LinearRing>
						<coordinates>
							120.5464824634521,15.43541114683801,0 120.5464797393023,15.43537204879737,0 120.5476934948344,15.43537781706729,0 120.5476942543405,15.43541499344536,0 120.5464824634521,15.43541114683801,0 
						</coordinates>
					</LinearRing>
				</outerBoundaryIs>
			</Polygon>
			<Polygon>
				<tessellate>1</tessellate>
				<outerBoundaryIs>
					<LinearRing>
						<coordinates>
							120.546501145925,15.43546611556398,0 120.5464982139484,15.43542783301494,0 120.547713704024,15.43543001355699,0 120.5477130416169,15.435465797031,0 120.546501145925,15.43546611556398,0 
						</coordinates>
					</LinearRing>
				</outerBoundaryIs>
			</Polygon>
			<Polygon>
				<tessellate>1</tessellate>
				<outerBoundaryIs>
					<LinearRing>
						<coordinates>
							120.5465286651358,15.43551479735643,0 120.5465273433034,15.43547810600792,0 120.5477440496397,15.43547929932398,0 120.5477458360347,15.43551681146318,0 120.5465286651358,15.43551479735643,0 
						</coordinates>
					</LinearRing>
				</outerBoundaryIs>
			</Polygon>
			<Polygon>
				<tessellate>1</tessellate>
				<outerBoundaryIs>
					<LinearRing>
						<coordinates>
							120.5465291076305,15.43556739895345,0 120.5465292574591,15.43552788746574,0 120.547743160886,15.4355303849507,0 120.5477440198473,15.43556778000869,0 120.5465291076305,15.43556739895345,0 
						</coordinates>
					</LinearRing>
				</outerBoundaryIs>
			</Polygon>
			<Polygon>
				<tessellate>1</tessellate>
				<outerBoundaryIs>
					<LinearRing>
						<coordinates>
							120.5465512936341,15.43562042604428,0 120.5465526599315,15.43558263899301,0 120.5477703898766,15.43558410788243,0 120.5477731137032,15.43562124168938,0 120.5465512936341,15.43562042604428,0 
						</coordinates>
					</LinearRing>
				</outerBoundaryIs>
			</Polygon>
			<Polygon>
				<tessellate>1</tessellate>
				<outerBoundaryIs>
					<LinearRing>
						<coordinates>
							120.546569237481,15.43567272741386,0 120.5465658456562,15.4356349722682,0 120.5477818928607,15.43563618680808,0 120.547787263034,15.43567421154529,0 120.546569237481,15.43567272741386,0 
						</coordinates>
					</LinearRing>
				</outerBoundaryIs>
			</Polygon>
			<Polygon>
				<tessellate>1</tessellate>
				<outerBoundaryIs>
					<LinearRing>
						<coordinates>
							120.5465847920844,15.43572379679399,0 120.5465770407483,15.43568395450465,0 120.5477847122496,15.43568610129302,0 120.5477865971793,15.43572622761009,0 120.5465847920844,15.43572379679399,0 
						</coordinates>
					</LinearRing>
				</outerBoundaryIs>
			</Polygon>
			<Polygon>
				<tessellate>1</tessellate>
				<outerBoundaryIs>
					<LinearRing>
						<coordinates>
							120.5465975396187,15.43577578709436,0 120.5465924555443,15.43573571418077,0 120.5478078392262,15.43574058828593,0 120.5478121047904,15.43577749628336,0 120.5465975396187,15.43577578709436,0 
						</coordinates>
					</LinearRing>
				</outerBoundaryIs>
			</Polygon>
			<Polygon>
				<tessellate>1</tessellate>
				<outerBoundaryIs>
					<LinearRing>
						<coordinates>
							120.5466212655407,15.43582612728055,0 120.5466193083536,15.43578897716182,0 120.5478335741565,15.43578612824607,0 120.5478340356143,15.43582577292276,0 120.5466212655407,15.43582612728055,0 
						</coordinates>
					</LinearRing>
				</outerBoundaryIs>
			</Polygon>
			<Polygon>
				<tessellate>1</tessellate>
				<outerBoundaryIs>
					<LinearRing>
						<coordinates>
							120.5466391499328,15.43588009785213,0 120.5466384333114,15.43584013388882,0 120.5478499601872,15.43583986472743,0 120.5478480477649,15.43588010574236,0 120.5466391499328,15.43588009785213,0 
						</coordinates>
					</LinearRing>
				</outerBoundaryIs>
			</Polygon>
			<MultiGeometry>
				<MultiGeometry>
					<MultiGeometry>
						<MultiGeometry>
							<Polygon>
								<tessellate>1</tessellate>
								<outerBoundaryIs>
									<LinearRing>
										<coordinates>
											120.5439806540849,15.43603181349647,0 120.5439822648719,15.43599488351376,0 120.5441277327961,15.43599580234297,0 120.5441308470442,15.43603418336357,0 120.5439806540849,15.43603181349647,0 
										</coordinates>
									</LinearRing>
								</outerBoundaryIs>
							</Polygon>
							<Polygon>
								<tessellate>1</tessellate>
								<outerBoundaryIs>
									<LinearRing>
										<coordinates>
											120.5444157489805,15.43603569893802,0 120.5444147014349,15.43600123401574,0 120.544493624837,15.4360005928337,0 120.5444959263207,15.43603411816848,0 120.5444157489805,15.43603569893802,0 
										</coordinates>
									</LinearRing>
								</outerBoundaryIs>
							</Polygon>
							<Polygon>
								<tessellate>1</tessellate>
								<outerBoundaryIs>
									<LinearRing>
										<coordinates>
											120.5437276568664,15.43608654081275,0 120.543730234832,15.43605042414469,0 120.5444823018399,15.43604973597935,0 120.5444861869984,15.43608540671064,0 120.5437276568664,15.43608654081275,0 
										</coordinates>
									</LinearRing>
								</outerBoundaryIs>
							</Polygon>
							<Polygon>
								<tessellate>1</tessellate>
								<outerBoundaryIs>
									<LinearRing>
										<coordinates>
											120.5435819363068,15.43614163662443,0 120.5435832620726,15.43610292516622,0 120.544495567817,15.43610476808413,0 120.5444939313548,15.43613900335411,0 120.5435819363068,15.43614163662443,0 
										</coordinates>
									</LinearRing>
								</outerBoundaryIs>
							</Polygon>
							<Polygon>
								<tessellate>1</tessellate>
								<outerBoundaryIs>
									<LinearRing>
										<coordinates>
											120.5432793178222,15.43619839199468,0 120.5432871482579,15.43615719376239,0 120.5445025833732,15.43615624959487,0 120.5445031634359,15.43619437482124,0 120.5432793178222,15.43619839199468,0 
										</coordinates>
									</LinearRing>
								</outerBoundaryIs>
							</Polygon>
						</MultiGeometry>
						<Polygon>
							<tessellate>1</tessellate>
							<outerBoundaryIs>
								<LinearRing>
									<coordinates>
									</coordinates>
								</LinearRing>
							</outerBoundaryIs>
						</Polygon>
						<Polygon>
							<tessellate>1</tessellate>
							<outerBoundaryIs>
								<LinearRing>
									<coordinates>
										120.5457881503651,15.43479449488948,0 120.5457892257098,15.43475807373165,0 120.5460890255997,15.43475774206751,0 120.5460927503955,15.434794147054,0 120.5457881503651,15.43479449488948,0 
									</coordinates>
								</LinearRing>
							</outerBoundaryIs>
						</Polygon>
						<Polygon>
							<tessellate>1</tessellate>
							<outerBoundaryIs>
								<LinearRing>
									<coordinates>
										120.5455646710726,15.43484670926802,0 120.5455639550914,15.43480966324441,0 120.5461659177003,15.43480972968521,0 120.5461696393279,15.43484605462846,0 120.5455646710726,15.43484670926802,0 
									</coordinates>
								</LinearRing>
							</outerBoundaryIs>
						</Polygon>
						<Polygon>
							<tessellate>1</tessellate>
							<outerBoundaryIs>
								<LinearRing>
									<coordinates>
										120.5452678306018,15.43489874974698,0 120.5452698866906,15.43486173572668,0 120.5461823675236,15.43486125190354,0 120.5461811396535,15.43489635290819,0 120.5452678306018,15.43489874974698,0 
									</coordinates>
								</LinearRing>
							</outerBoundaryIs>
						</Polygon>
						<Polygon>
							<tessellate>1</tessellate>
							<outerBoundaryIs>
								<LinearRing>
									<coordinates>
										120.5448053198067,15.43495120017574,0 120.5448104082855,15.43491188075099,0 120.5452649205015,15.43491369739629,0 120.5452650335917,15.43495003022709,0 120.5448053198067,15.43495120017574,0 
									</coordinates>
								</LinearRing>
							</outerBoundaryIs>
						</Polygon>
					</MultiGeometry>
					<Polygon>
						<tessellate>1</tessellate>
						<outerBoundaryIs>
							<LinearRing>
								<coordinates>
									120.5452732090762,15.43495213956114,0 120.5452749399023,15.43491260113771,0 120.5461818296188,15.43491177001365,0 120.546181499655,15.43494776571043,0 120.5452732090762,15.43495213956114,0 
								</coordinates>
							</LinearRing>
						</outerBoundaryIs>
					</Polygon>
					<MultiGeometry>
						<Polygon>
							<tessellate>1</tessellate>
							<outerBoundaryIs>
								<LinearRing>
									<coordinates>
										120.5452816368455,15.43505215379299,0 120.5452803156198,15.43501544797729,0 120.5461884119381,15.43501548018578,0 120.5461912286637,15.4350508885255,0 120.5452816368455,15.43505215379299,0 
									</coordinates>
								</LinearRing>
							</outerBoundaryIs>
						</Polygon>
						<Polygon>
							<tessellate>1</tessellate>
							<outerBoundaryIs>
								<LinearRing>
									<coordinates>
										120.5453002163071,15.43510548789408,0 120.5452975319617,15.43506665084717,0 120.5462101411898,15.43506772670787,0 120.5462115665516,15.43510389660805,0 120.5453002163071,15.43510548789408,0 
									</coordinates>
								</LinearRing>
							</outerBoundaryIs>
						</Polygon>
						<Polygon>
							<tessellate>1</tessellate>
							<outerBoundaryIs>
								<LinearRing>
									<coordinates>
										120.5453238028099,15.43515679798575,0 120.5453246979134,15.43511708281702,0 120.5462350347749,15.43511888297696,0 120.5462388243762,15.43515615042874,0 120.5453238028099,15.43515679798575,0 
									</coordinates>
								</LinearRing>
							</outerBoundaryIs>
						</Polygon>
						<Polygon>
							<tessellate>1</tessellate>
							<outerBoundaryIs>
								<LinearRing>
									<coordinates>
										120.5453436286686,15.4352089502465,0 120.5453441066817,15.43516995065326,0 120.546252930968,15.43517162940501,0 120.546252357533,15.4352099717071,0 120.5453436286686,15.4352089502465,0 
									</coordinates>
								</LinearRing>
							</outerBoundaryIs>
						</Polygon>
						<Polygon>
							<tessellate>1</tessellate>
							<outerBoundaryIs>
								<LinearRing>
									<coordinates>
										120.5453574711048,15.43526173349603,0 120.5453574707414,15.43522270563503,0 120.5462690597015,15.43522425606923,0 120.546269521898,15.43526205607551,0 120.5453574711048,15.43526173349603,0 
									</coordinates>
								</LinearRing>
							</outerBoundaryIs>
						</Polygon>
						<Polygon>
							<tessellate>1</tessellate>
							<outerBoundaryIs>
								<LinearRing>
									<coordinates>
										120.5453734841648,15.4353093635925,0 120.5453741018968,15.43527281834437,0 120.5462818953943,15.43527756686488,0 120.546282866612,15.43531552386556,0 120.5453734841648,15.4353093635925,0 
									</coordinates>
								</LinearRing>
							</outerBoundaryIs>
						</Polygon>
						<Polygon>
							<tessellate>1</tessellate>
							<outerBoundaryIs>
								<LinearRing>
									<coordinates>
										120.5453933327148,15.43536320870095,0 120.5453939013935,15.43532578892355,0 120.5463032054604,15.43532917493562,0 120.5463049752711,15.43536649850709,0 120.5453933327148,15.43536320870095,0 
									</coordinates>
								</LinearRing>
							</outerBoundaryIs>
						</Polygon>
						<Polygon>
							<tessellate>1</tessellate>
							<outerBoundaryIs>
								<LinearRing>
									<coordinates>
										120.5454170017994,15.43541802518729,0 120.5454152480182,15.43537539088561,0 120.546326681703,15.43537943330078,0 120.546329076128,15.43541549508877,0 120.5454170017994,15.43541802518729,0 
									</coordinates>
								</LinearRing>
							</outerBoundaryIs>
						</Polygon>
					</MultiGeometry>
					<Polygon>
						<tessellate>1</tessellate>
						<outerBoundaryIs>
							<LinearRing>
								<coordinates>
									120.5452724459027,15.4350042262402,0 120.5452721431497,15.43496331723209,0 120.5461822914611,15.43496238781702,0 120.5461833212271,15.43500156969831,0 120.5452724459027,15.4350042262402,0 
								</coordinates>
							</LinearRing>
						</outerBoundaryIs>
					</Polygon>
					<MultiGeometry>
						<Polygon>
							<tessellate>1</tessellate>
							<outerBoundaryIs>
								<LinearRing>
									<coordinates>
										120.5444946710425,15.43500361103998,0 120.5444953577142,15.434963029606,0 120.5452555478065,15.43496110426475,0 120.5452549302817,15.43500016813214,0 120.5444946710425,15.43500361103998,0 
									</coordinates>
								</LinearRing>
							</outerBoundaryIs>
						</Polygon>
						<Polygon>
							<tessellate>1</tessellate>
							<outerBoundaryIs>
								<LinearRing>
									<coordinates>
										120.5441932149001,15.43505272128343,0 120.5441901394122,15.43501250348869,0 120.5452556532607,15.43501557818937,0 120.5452532171423,15.43505274702368,0 120.5441932149001,15.43505272128343,0 
									</coordinates>
								</LinearRing>
							</outerBoundaryIs>
						</Polygon>
						<Polygon>
							<tessellate>1</tessellate>
							<outerBoundaryIs>
								<LinearRing>
									<coordinates>
										120.5442112211639,15.43510298916839,0 120.5442092162014,15.43506361954249,0 120.545272933023,15.43506732026466,0 120.5452714404826,15.4351045357948,0 120.5442112211639,15.43510298916839,0 
									</coordinates>
								</LinearRing>
							</outerBoundaryIs>
						</Polygon>
						<Polygon>
							<tessellate>1</tessellate>
							<outerBoundaryIs>
								<LinearRing>
									<coordinates>
										120.5442374454493,15.43515617618173,0 120.5442382770957,15.43511586375771,0 120.5453015168665,15.43512009517919,0 120.5453001027256,15.43515731736131,0 120.5442374454493,15.43515617618173,0 
									</coordinates>
								</LinearRing>
							</outerBoundaryIs>
						</Polygon>
						<Polygon>
							<tessellate>1</tessellate>
							<outerBoundaryIs>
								<LinearRing>
									<coordinates>
										120.5442545104135,15.43520463541096,0 120.5442533917845,15.43516344387657,0 120.5453183887358,15.4351704960534,0 120.5453168319668,15.43520681510394,0 120.5442545104135,15.43520463541096,0 
									</coordinates>
								</LinearRing>
							</outerBoundaryIs>
						</Polygon>
						<Polygon>
							<tessellate>1</tessellate>
							<outerBoundaryIs>
								<LinearRing>
									<coordinates>
										120.5442740580204,15.43525476181204,0 120.5442722936405,15.4352163073552,0 120.545335726928,15.43522065976344,0 120.5453353176056,15.43525911539651,0 120.5442740580204,15.43525476181204,0 
									</coordinates>
								</LinearRing>
							</outerBoundaryIs>
						</Polygon>
						<Polygon>
							<tessellate>1</tessellate>
							<outerBoundaryIs>
								<LinearRing>
									<coordinates>
										120.5442877569906,15.43530540618313,0 120.5442835593598,15.43526709596572,0 120.5453484735594,15.43527345181141,0 120.545348236157,15.43530879946854,0 120.5442877569906,15.43530540618313,0 
									</coordinates>
								</LinearRing>
							</outerBoundaryIs>
						</Polygon>
						<Polygon>
							<tessellate>1</tessellate>
							<outerBoundaryIs>
								<LinearRing>
									<coordinates>
										120.5443134930681,15.43535641902268,0 120.5443134919191,15.43531813593849,0 120.5453711763365,15.43532422734571,0 120.5453696372101,15.43536171268802,0 120.5443134930681,15.43535641902268,0 
									</coordinates>
								</LinearRing>
							</outerBoundaryIs>
						</Polygon>
						<Polygon>
							<tessellate>1</tessellate>
							<outerBoundaryIs>
								<LinearRing>
									<coordinates>
										120.5443293703958,15.43540533258219,0 120.544334382155,15.43537005876849,0 120.5453943081903,15.43537653954578,0 120.5453964451212,15.43541189221915,0 120.5443293703958,15.43540533258219,0 
									</coordinates>
								</LinearRing>
							</outerBoundaryIs>
						</Polygon>
					</MultiGeometry>
				</MultiGeometry>
				<MultiGeometry>
					<Polygon>
						<tessellate>1</tessellate>
						<outerBoundaryIs>
							<LinearRing>
								<coordinates>
									120.5443522377142,15.43545863159748,0 120.544351691026,15.43542161547212,0 120.5454128926319,15.43542662618589,0 120.5454131535119,15.43546717675537,0 120.5443522377142,15.43545863159748,0 
								</coordinates>
							</LinearRing>
						</outerBoundaryIs>
					</Polygon>
					<Polygon>
						<tessellate>1</tessellate>
						<outerBoundaryIs>
							<LinearRing>
								<coordinates>
									120.5443706785165,15.43551015759471,0 120.5443682138607,15.4354707300052,0 120.5454277882158,15.43547944631272,0 120.5454309103509,15.4355155193006,0 120.5443706785165,15.43551015759471,0 
								</coordinates>
							</LinearRing>
						</outerBoundaryIs>
					</Polygon>
					<Polygon>
						<tessellate>1</tessellate>
						<outerBoundaryIs>
							<LinearRing>
								<coordinates>
									120.5443919401466,15.43556124522813,0 120.5443964689187,15.43552119097676,0 120.5454531642102,15.43553092858978,0 120.5454560283446,15.43556942195345,0 120.5443919401466,15.43556124522813,0 
								</coordinates>
							</LinearRing>
						</outerBoundaryIs>
					</Polygon>
					<Polygon>
						<tessellate>1</tessellate>
						<outerBoundaryIs>
							<LinearRing>
								<coordinates>
									120.5444192898581,15.43561280420468,0 120.5444189874719,15.43557229978138,0 120.5454764241948,15.43558211646924,0 120.5454755908374,15.43561918717886,0 120.5444192898581,15.43561280420468,0 
								</coordinates>
							</LinearRing>
						</outerBoundaryIs>
					</Polygon>
					<Polygon>
						<tessellate>1</tessellate>
						<outerBoundaryIs>
							<LinearRing>
								<coordinates>
									120.5444329037454,15.43566805868144,0 120.5444321326636,15.43562653575083,0 120.5454944130706,15.43563503851627,0 120.5454933517108,15.43567340538982,0 120.5444329037454,15.43566805868144,0 
								</coordinates>
							</LinearRing>
						</outerBoundaryIs>
					</Polygon>
					<Polygon>
						<tessellate>1</tessellate>
						<outerBoundaryIs>
							<LinearRing>
								<coordinates>
									120.5444580622594,15.43571442557701,0 120.5444579111027,15.4356763153083,0 120.5455150107524,15.43568751191309,0 120.5455128302005,15.43572576802253,0 120.5444580622594,15.43571442557701,0 
								</coordinates>
							</LinearRing>
						</outerBoundaryIs>
					</Polygon>
					<Polygon>
						<tessellate>1</tessellate>
						<outerBoundaryIs>
							<LinearRing>
								<coordinates>
									120.544477096921,15.43576949368839,0 120.5444751024052,15.43572781706829,0 120.5455364791626,15.43573789396064,0 120.5455355311243,15.43577629624667,0 120.544477096921,15.43576949368839,0 
								</coordinates>
							</LinearRing>
						</outerBoundaryIs>
					</Polygon>
					<Polygon>
						<tessellate>1</tessellate>
						<outerBoundaryIs>
							<LinearRing>
								<coordinates>
									120.5444948105372,15.43582058488508,0 120.5444950596091,15.43577903430939,0 120.5455509105996,15.43578947833566,0 120.5455511711219,15.43582691087878,0 120.5444948105372,15.43582058488508,0 
								</coordinates>
							</LinearRing>
						</outerBoundaryIs>
					</Polygon>
					<Polygon>
						<tessellate>1</tessellate>
						<outerBoundaryIs>
							<LinearRing>
								<coordinates>
									120.5445167218586,15.43586999753334,0 120.5445101398958,15.43583028542515,0 120.5455731746855,15.43583905747022,0 120.5455759902646,15.43587785414895,0 120.5445167218586,15.43586999753334,0 
								</coordinates>
							</LinearRing>
						</outerBoundaryIs>
					</Polygon>
					<Polygon>
						<tessellate>1</tessellate>
						<outerBoundaryIs>
							<LinearRing>
								<coordinates>
									120.5445816320255,15.43592728885339,0 120.5445814530075,15.43588289843634,0 120.5455731577148,15.43589174346715,0 120.5455713229473,15.43592776988974,0 120.5445816320255,15.43592728885339,0 
								</coordinates>
							</LinearRing>
						</outerBoundaryIs>
					</Polygon>
				</MultiGeometry>
				<MultiGeometry>
					<MultiGeometry>
						<Polygon>
							<tessellate>1</tessellate>
							<outerBoundaryIs>
								<LinearRing>
									<coordinates>
										120.5446655655343,15.43597748256182,0 120.5446596692589,15.43593804341843,0 120.5455711637996,15.43594309575777,0 120.5455740104348,15.4359797671926,0 120.5446655655343,15.43597748256182,0 
									</coordinates>
								</LinearRing>
							</outerBoundaryIs>
						</Polygon>
						<Polygon>
							<tessellate>1</tessellate>
							<outerBoundaryIs>
								<LinearRing>
									<coordinates>
										120.5445819476098,15.43602705595692,0 120.5445805550164,15.43598883156985,0 120.545644645502,15.43599319266822,0 120.5456426029624,15.436032062898,0 120.5445819476098,15.43602705595692,0 
									</coordinates>
								</LinearRing>
							</outerBoundaryIs>
						</Polygon>
						<Polygon>
							<tessellate>1</tessellate>
							<outerBoundaryIs>
								<LinearRing>
									<coordinates>
										120.5445880353935,15.43607882796031,0 120.5445888852524,15.43603943429013,0 120.5456563237304,15.43604761785988,0 120.5456545230167,15.43608197312158,0 120.5445880353935,15.43607882796031,0 
									</coordinates>
								</LinearRing>
							</outerBoundaryIs>
						</Polygon>
						<Polygon>
							<tessellate>1</tessellate>
							<outerBoundaryIs>
								<LinearRing>
									<coordinates>
										120.5446067250303,15.43612860577328,0 120.5446028958311,15.43609118029111,0 120.5456694441127,15.4360982028133,0 120.5456711214243,15.43613617294218,0 120.5446067250303,15.43612860577328,0 
									</coordinates>
								</LinearRing>
							</outerBoundaryIs>
						</Polygon>
						<Polygon>
							<tessellate>1</tessellate>
							<outerBoundaryIs>
								<LinearRing>
									<coordinates>
										120.5446099822192,15.43618253675903,0 120.5446086257804,15.43614225658021,0 120.5456703417867,15.43614710917972,0 120.5456725335632,15.4361842480216,0 120.5446099822192,15.43618253675903,0 
									</coordinates>
								</LinearRing>
							</outerBoundaryIs>
						</Polygon>
						<Polygon>
							<tessellate>1</tessellate>
							<outerBoundaryIs>
								<LinearRing>
									<coordinates>
										120.5446135308929,15.43623555627824,0 120.5446144324005,15.43619652448609,0 120.5456778350906,15.43619931223087,0 120.5456776913105,15.43623499300079,0 120.5446135308929,15.43623555627824,0 
									</coordinates>
								</LinearRing>
							</outerBoundaryIs>
						</Polygon>
					</MultiGeometry>
					<MultiGeometry>
						<Polygon>
							<tessellate>1</tessellate>
							<outerBoundaryIs>
								<LinearRing>
									<coordinates>
										120.5446135908428,15.43628759516559,0 120.5446123176182,15.43624595126222,0 120.5456805165758,15.4362509746075,0 120.5456821579494,15.43628768877553,0 120.5446135908428,15.43628759516559,0 
									</coordinates>
								</LinearRing>
							</outerBoundaryIs>
						</Polygon>
						<Polygon>
							<tessellate>1</tessellate>
							<outerBoundaryIs>
								<LinearRing>
									<coordinates>
										120.5446249607564,15.4363387961489,0 120.5446232473053,15.43630058346464,0 120.5456863390066,15.43630478735793,0 120.5456879880578,15.43634165832645,0 120.5446249607564,15.4363387961489,0 
									</coordinates>
								</LinearRing>
							</outerBoundaryIs>
						</Polygon>
						<Polygon>
							<tessellate>1</tessellate>
							<outerBoundaryIs>
								<LinearRing>
									<coordinates>
										120.5446353142185,15.43638862125202,0 120.5446349450406,15.43634914131361,0 120.5456965976323,15.43636038475181,0 120.5456984220163,15.43639440046016,0 120.5446353142185,15.43638862125202,0 
									</coordinates>
								</LinearRing>
							</outerBoundaryIs>
						</Polygon>
						<Polygon>
							<tessellate>1</tessellate>
							<outerBoundaryIs>
								<LinearRing>
									<coordinates>
										120.5446465885412,15.43644191653273,0 120.5446501684704,15.43640026682745,0 120.5457071945597,15.43641292330491,0 120.5457085954388,15.43644741637372,0 120.5446465885412,15.43644191653273,0 
									</coordinates>
								</LinearRing>
							</outerBoundaryIs>
						</Polygon>
					</MultiGeometry>
					<Polygon>
						<tessellate>1</tessellate>
						<outerBoundaryIs>
							<LinearRing>
								<coordinates>
									120.5446543522773,15.43649646427525,0 120.5446562834172,15.43645460162944,0 120.5457235133639,15.43646496007053,0 120.5457254873123,15.43649953494987,0 120.5446543522773,15.43649646427525,0 
								</coordinates>
							</LinearRing>
						</outerBoundaryIs>
					</Polygon>
					<Polygon>
						<tessellate>1</tessellate>
						<outerBoundaryIs>
							<LinearRing>
								<coordinates>
									120.5446572824507,15.43654602886702,0 120.5446566522607,15.43650268587518,0 120.5457256032211,15.43651761931894,0 120.5457264943672,15.43655551754576,0 120.5446572824507,15.43654602886702,0 
								</coordinates>
							</LinearRing>
						</outerBoundaryIs>
					</Polygon>
					<Polygon>
						<tessellate>1</tessellate>
						<outerBoundaryIs>
							<LinearRing>
								<coordinates>
									120.5446664560633,15.43659963662818,0 120.5446631323642,15.43655979505787,0 120.5457304643171,15.43656866030633,0 120.5457303665174,15.43660388288137,0 120.5446664560633,15.43659963662818,0 
								</coordinates>
							</LinearRing>
						</outerBoundaryIs>
					</Polygon>
				</MultiGeometry>
				<MultiGeometry>
					<Polygon>
						<tessellate>1</tessellate>
						<outerBoundaryIs>
							<LinearRing>
								<coordinates>
									120.5446756742546,15.43664718348612,0 120.5446684002299,15.43661211413696,0 120.5455838685644,15.43662420386348,0 120.5455824572857,15.43665790797623,0 120.5446756742546,15.43664718348612,0 
								</coordinates>
							</LinearRing>
						</outerBoundaryIs>
					</Polygon>
					<Polygon>
						<tessellate>1</tessellate>
						<outerBoundaryIs>
							<LinearRing>
								<coordinates>
									120.5446819826071,15.43670201521478,0 120.544682937383,15.43666592524204,0 120.5455937367615,15.43667204576177,0 120.5455921803724,15.43670983328555,0 120.5446819826071,15.43670201521478,0 
								</coordinates>
							</LinearRing>
						</outerBoundaryIs>
					</Polygon>
					<Polygon>
						<tessellate>1</tessellate>
						<outerBoundaryIs>
							<LinearRing>
								<coordinates>
									120.5446911347391,15.43675204851005,0 120.5446898445974,15.43671713335232,0 120.5456030914431,15.43672471008953,0 120.5456042644561,15.4367578227269,0 120.5446911347391,15.43675204851005,0 
								</coordinates>
							</LinearRing>
						</outerBoundaryIs>
					</Polygon>
					<Polygon>
						<tessellate>1</tessellate>
						<outerBoundaryIs>
							<LinearRing>
								<coordinates>
									120.5446988248806,15.43680785291012,0 120.5446965872685,15.43677080012594,0 120.5454564994017,15.43677572566395,0 120.5454613100159,15.43680860706134,0 120.5446988248806,15.43680785291012,0 
								</coordinates>
							</LinearRing>
						</outerBoundaryIs>
					</Polygon>
					<Polygon>
						<tessellate>1</tessellate>
						<outerBoundaryIs>
							<LinearRing>
								<coordinates>
									120.5446978523829,15.43685955701246,0 120.5446953036284,15.43682454687004,0 120.5454568287861,15.43682615734117,0 120.5454590053952,15.43685927175911,0 120.5446978523829,15.43685955701246,0 
								</coordinates>
							</LinearRing>
						</outerBoundaryIs>
					</Polygon>
					<Polygon>
						<tessellate>1</tessellate>
						<outerBoundaryIs>
							<LinearRing>
								<coordinates>
									120.5447082629331,15.43691117353617,0 120.5447073394981,15.43687269721998,0 120.5454689067232,15.43687451250317,0 120.5454719263143,15.43690912364626,0 120.5447082629331,15.43691117353617,0 
								</coordinates>
							</LinearRing>
						</outerBoundaryIs>
					</Polygon>
					<Polygon>
						<tessellate>1</tessellate>
						<outerBoundaryIs>
							<LinearRing>
								<coordinates>
									120.5447205101732,15.43696576137329,0 120.5447191958824,15.43692174358203,0 120.5454878806539,15.43692804646381,0 120.5454859158497,15.43696590920498,0 120.5447205101732,15.43696576137329,0 
								</coordinates>
							</LinearRing>
						</outerBoundaryIs>
					</Polygon>
				</MultiGeometry>
				<MultiGeometry>
					<Polygon>
						<tessellate>1</tessellate>
						<outerBoundaryIs>
							<LinearRing>
								<coordinates>
									120.5447237789214,15.43701634556948,0 120.5447238031651,15.43697725706142,0 120.5453375787848,15.43697667306677,0 120.5453398786879,15.43701494470537,0 120.5447237789214,15.43701634556948,0 
								</coordinates>
							</LinearRing>
						</outerBoundaryIs>
					</Polygon>
					<Polygon>
						<tessellate>1</tessellate>
						<outerBoundaryIs>
							<LinearRing>
								<coordinates>
									120.5447324761077,15.43706716183101,0 120.5447335191914,15.43702922165233,0 120.5453447558011,15.43702966998706,0 120.545346861302,15.43706859878162,0 120.5447324761077,15.43706716183101,0 
								</coordinates>
							</LinearRing>
						</outerBoundaryIs>
					</Polygon>
					<Polygon>
						<tessellate>1</tessellate>
						<outerBoundaryIs>
							<LinearRing>
								<coordinates>
									120.5447371864016,15.43712050849236,0 120.5447384511269,15.43708078243065,0 120.5453473418019,15.43708557307768,0 120.5453497410832,15.43712088507738,0 120.5447371864016,15.43712050849236,0 
								</coordinates>
							</LinearRing>
						</outerBoundaryIs>
					</Polygon>
					<Polygon>
						<tessellate>1</tessellate>
						<outerBoundaryIs>
							<LinearRing>
								<coordinates>
									120.5447461809414,15.43717158657622,0 120.5447478484864,15.43713341671897,0 120.545203550036,15.43713650443081,0 120.5452029610213,15.43717002197963,0 120.5447461809414,15.43717158657622,0 
								</coordinates>
							</LinearRing>
						</outerBoundaryIs>
					</Polygon>
					<Polygon>
						<tessellate>1</tessellate>
						<outerBoundaryIs>
							<LinearRing>
								<coordinates>
									120.5447541910497,15.4372230687005,0 120.5447577098163,15.43718479419534,0 120.5452088408591,15.43718893048353,0 120.5452080264569,15.43722364200958,0 120.5447541910497,15.4372230687005,0 
								</coordinates>
							</LinearRing>
						</outerBoundaryIs>
					</Polygon>
					<Polygon>
						<tessellate>1</tessellate>
						<outerBoundaryIs>
							<LinearRing>
								<coordinates>
									120.5447579318999,15.43727452093746,0 120.5447565558572,15.43723636918795,0 120.545207293657,15.43723754215358,0 120.5452084803266,15.43727490034991,0 120.5447579318999,15.43727452093746,0 
								</coordinates>
							</LinearRing>
						</outerBoundaryIs>
					</Polygon>
					<Polygon>
						<tessellate>1</tessellate>
						<outerBoundaryIs>
							<LinearRing>
								<coordinates>
									120.5447678961635,15.43732535723686,0 120.5447705311455,15.43728822757514,0 120.5450702151829,15.43729009892467,0 120.5450696669283,15.43732503227367,0 120.5447678961635,15.43732535723686,0 
								</coordinates>
							</LinearRing>
						</outerBoundaryIs>
					</Polygon>
					<Polygon>
						<tessellate>1</tessellate>
						<outerBoundaryIs>
							<LinearRing>
								<coordinates>
									120.5447926366322,15.43737524578449,0 120.5447927576539,15.43734017922138,0 120.5449393222375,15.43734103102479,0 120.5449427535292,15.43737799838811,0 120.5447926366322,15.43737524578449,0 
								</coordinates>
							</LinearRing>
						</outerBoundaryIs>
					</Polygon>
				</MultiGeometry>
			</MultiGeometry>
			<MultiGeometry>
				<Polygon>
					<tessellate>1</tessellate>
					<outerBoundaryIs>
						<LinearRing>
							<coordinates>
								120.5454417771747,15.43546884736013,0 120.5454384180445,15.43542927188144,0 120.5463483657097,15.43543276889338,0 120.5463469693721,15.43547164675677,0 120.5454417771747,15.43546884736013,0 
							</coordinates>
						</LinearRing>
					</outerBoundaryIs>
				</Polygon>
				<Polygon>
					<tessellate>1</tessellate>
					<outerBoundaryIs>
						<LinearRing>
							<coordinates>
								120.5454550976813,15.43551938908096,0 120.5454569778607,15.43548434694298,0 120.5463631415602,15.43548331394238,0 120.5463653659753,15.43552123675021,0 120.5454550976813,15.43551938908096,0 
							</coordinates>
						</LinearRing>
					</outerBoundaryIs>
				</Polygon>
				<Polygon>
					<tessellate>1</tessellate>
					<outerBoundaryIs>
						<LinearRing>
							<coordinates>
								120.5454792677767,15.43557194069651,0 120.5454778244166,15.43553446741275,0 120.546389482143,15.4355366772297,0 120.5463871229489,15.43557232363436,0 120.5454792677767,15.43557194069651,0 
							</coordinates>
						</LinearRing>
					</outerBoundaryIs>
				</Polygon>
				<Polygon>
					<tessellate>1</tessellate>
					<outerBoundaryIs>
						<LinearRing>
							<coordinates>
								120.5454960768014,15.43562335493236,0 120.5454988181282,15.43558386355883,0 120.5464060952184,15.43558741622689,0 120.5464063788917,15.43562756739052,0 120.5454960768014,15.43562335493236,0 
							</coordinates>
						</LinearRing>
					</outerBoundaryIs>
				</Polygon>
				<Polygon>
					<tessellate>1</tessellate>
					<outerBoundaryIs>
						<LinearRing>
							<coordinates>
								120.5455150428399,15.43567692521848,0 120.5455142399217,15.43563599297567,0 120.5464230149214,15.43564153080018,0 120.5464222068456,15.43567822667505,0 120.5455150428399,15.43567692521848,0 
							</coordinates>
						</LinearRing>
					</outerBoundaryIs>
				</Polygon>
				<Polygon>
					<tessellate>1</tessellate>
					<outerBoundaryIs>
						<LinearRing>
							<coordinates>
								120.5455315807171,15.43572809283491,0 120.5455308229629,15.43568831791808,0 120.5464399231598,15.43568905632534,0 120.5464414168352,15.43572715898612,0 120.5455315807171,15.43572809283491,0 
							</coordinates>
						</LinearRing>
					</outerBoundaryIs>
				</Polygon>
				<Polygon>
					<tessellate>1</tessellate>
					<outerBoundaryIs>
						<LinearRing>
							<coordinates>
								120.5455493721345,15.43577387791614,0 120.5455500847885,15.43573832544792,0 120.5464600445453,15.43574020054974,0 120.546461685644,15.43577939245108,0 120.5455493721345,15.43577387791614,0 
							</coordinates>
						</LinearRing>
					</outerBoundaryIs>
				</Polygon>
				<Polygon>
					<tessellate>1</tessellate>
					<outerBoundaryIs>
						<LinearRing>
							<coordinates>
								120.5455727954353,15.4358301516526,0 120.5455694314801,15.43578992422567,0 120.5464761917472,15.43579445920136,0 120.5464769700366,15.4358328625561,0 120.5455727954353,15.4358301516526,0 
							</coordinates>
						</LinearRing>
					</outerBoundaryIs>
				</Polygon>
			</MultiGeometry>
			<MultiGeometry>
				<Polygon>
					<tessellate>1</tessellate>
					<outerBoundaryIs>
						<LinearRing>
							<coordinates>
								120.5455811935411,15.43588048507072,0 120.5455817932952,15.4358411066032,0 120.5464903210023,15.43584604728565,0 120.5464908559845,15.43588148620791,0 120.5455811935411,15.43588048507072,0 
							</coordinates>
						</LinearRing>
					</outerBoundaryIs>
				</Polygon>
				<Polygon>
					<tessellate>1</tessellate>
					<outerBoundaryIs>
						<LinearRing>
							<coordinates>
								120.5455827049228,15.43593207671735,0 120.5455823974676,15.43589342000625,0 120.546490458271,15.43589629005559,0 120.546488808265,15.4359350024736,0 120.5455827049228,15.43593207671735,0 
							</coordinates>
						</LinearRing>
					</outerBoundaryIs>
				</Polygon>
				<Polygon>
					<tessellate>1</tessellate>
					<outerBoundaryIs>
						<LinearRing>
							<coordinates>
								120.5455825892478,15.4359831363302,0 120.5455830786089,15.435946187315,0 120.546489650291,15.43594907102957,0 120.5464910443032,15.43598552665781,0 120.5455825892478,15.4359831363302,0 
							</coordinates>
						</LinearRing>
					</outerBoundaryIs>
				</Polygon>
				<Polygon>
					<tessellate>1</tessellate>
					<outerBoundaryIs>
						<LinearRing>
							<coordinates>
								120.545658882732,15.43603213060037,0 120.5456585199888,15.43599499681289,0 120.5465674852937,15.43599888385237,0 120.5465688685226,15.43603457687792,0 120.545658882732,15.43603213060037,0 
							</coordinates>
						</LinearRing>
					</outerBoundaryIs>
				</Polygon>
				<Polygon>
					<tessellate>1</tessellate>
					<outerBoundaryIs>
						<LinearRing>
							<coordinates>
								120.5456691146159,15.43608588626503,0 120.54566978648,15.43604712968832,0 120.5465763001352,15.43605031515651,0 120.5465756722312,15.43608681696121,0 120.5456691146159,15.43608588626503,0 
							</coordinates>
						</LinearRing>
					</outerBoundaryIs>
				</Polygon>
				<Polygon>
					<tessellate>1</tessellate>
					<outerBoundaryIs>
						<LinearRing>
							<coordinates>
								120.5456891659538,15.43613588472118,0 120.5456847327238,15.43609750839703,0 120.5465976516548,15.43610196377339,0 120.5465979631591,15.43613854491892,0 120.5456891659538,15.43613588472118,0 
							</coordinates>
						</LinearRing>
					</outerBoundaryIs>
				</Polygon>
				<Polygon>
					<tessellate>1</tessellate>
					<outerBoundaryIs>
						<LinearRing>
							<coordinates>
								120.5457091151541,15.43618940076061,0 120.5457080837562,15.43614859526987,0 120.5466161462078,15.4361532231429,0 120.5466129177362,15.43619105759306,0 120.5457091151541,15.43618940076061,0 
							</coordinates>
						</LinearRing>
					</outerBoundaryIs>
				</Polygon>
				<Polygon>
					<tessellate>1</tessellate>
					<outerBoundaryIs>
						<LinearRing>
							<coordinates>
								120.545724507458,15.43624053086035,0 120.5457246200904,15.43620093680816,0 120.5466353270018,15.43620350818883,0 120.5466354809619,15.43624184466064,0 120.545724507458,15.43624053086035,0 
							</coordinates>
						</LinearRing>
					</outerBoundaryIs>
				</Polygon>
				<Polygon>
					<tessellate>1</tessellate>
					<outerBoundaryIs>
						<LinearRing>
							<coordinates>
								120.5457318484464,15.43629180434014,0 120.5457355669099,15.4362526663502,0 120.5466426779732,15.43625836373842,0 120.5466431121198,15.43629530151144,0 120.5457318484464,15.43629180434014,0 
							</coordinates>
						</LinearRing>
					</outerBoundaryIs>
				</Polygon>
				<Polygon>
					<tessellate>1</tessellate>
					<outerBoundaryIs>
						<LinearRing>
							<coordinates>
								120.5457589291991,15.43634506252877,0 120.5457592269449,15.43630639755349,0 120.5466683933328,15.43630682416145,0 120.546669464199,15.43634385554186,0 120.5457589291991,15.43634506252877,0 
							</coordinates>
						</LinearRing>
					</outerBoundaryIs>
				</Polygon>
			</MultiGeometry>
			<MultiGeometry>
				<Polygon>
					<tessellate>1</tessellate>
					<outerBoundaryIs>
						<LinearRing>
							<coordinates>
								120.5457739597869,15.43640087588028,0 120.5457738578179,15.43636094417457,0 120.5466874176358,15.43635728231122,0 120.5466877350099,15.43639477994472,0 120.5457739597869,15.43640087588028,0 
							</coordinates>
						</LinearRing>
					</outerBoundaryIs>
				</Polygon>
				<Polygon>
					<tessellate>1</tessellate>
					<outerBoundaryIs>
						<LinearRing>
							<coordinates>
								120.5457887227154,15.43645243462168,0 120.5457915685591,15.4364121283788,0 120.5467072413263,15.43640889179778,0 120.5467085346448,15.43644546606454,0 120.5457887227154,15.43645243462168,0 
							</coordinates>
						</LinearRing>
					</outerBoundaryIs>
				</Polygon>
				<Polygon>
					<tessellate>1</tessellate>
					<outerBoundaryIs>
						<LinearRing>
							<coordinates>
								120.5458053669335,15.4365054902525,0 120.5458051716744,15.43646664029466,0 120.5467214266674,15.4364625126225,0 120.546721588662,15.43649993893563,0 120.5458053669335,15.4365054902525,0 
							</coordinates>
						</LinearRing>
					</outerBoundaryIs>
				</Polygon>
				<Polygon>
					<tessellate>1</tessellate>
					<outerBoundaryIs>
						<LinearRing>
							<coordinates>
								120.5458296084642,15.43655736868363,0 120.5458272962959,15.43652097550446,0 120.5467451689664,15.43651430055876,0 120.54674720309,15.43654861720306,0 120.5458296084642,15.43655736868363,0 
							</coordinates>
						</LinearRing>
					</outerBoundaryIs>
				</Polygon>
				<Polygon>
					<tessellate>1</tessellate>
					<outerBoundaryIs>
						<LinearRing>
							<coordinates>
								120.5458328398624,15.43660808115815,0 120.5458339039393,15.43657435533473,0 120.5467579552363,15.43656199868807,0 120.5467569284725,15.43659763358837,0 120.5458328398624,15.43660808115815,0 
							</coordinates>
						</LinearRing>
					</outerBoundaryIs>
				</Polygon>
				<Polygon>
					<tessellate>1</tessellate>
					<outerBoundaryIs>
						<LinearRing>
							<coordinates>
								120.5461738003304,15.43665310055336,0 120.5461707057874,15.43662081008134,0 120.5467819067264,15.43661400057514,0 120.5467837188449,15.43664960806023,0 120.5461738003304,15.43665310055336,0 
							</coordinates>
						</LinearRing>
					</outerBoundaryIs>
				</Polygon>
				<Polygon>
					<tessellate>1</tessellate>
					<outerBoundaryIs>
						<LinearRing>
							<coordinates>
								120.5463349984267,15.43670801324564,0 120.546333257374,15.43666703448609,0 120.5467941269878,15.4366647533759,0 120.5467992844287,15.4367030510695,0 120.5463349984267,15.43670801324564,0 
							</coordinates>
						</LinearRing>
					</outerBoundaryIs>
				</Polygon>
				<Polygon>
					<tessellate>1</tessellate>
					<outerBoundaryIs>
						<LinearRing>
							<coordinates>
								120.5463772104854,15.43676133063404,0 120.5463752125763,15.43672081450007,0 120.5468380426081,15.43671515404435,0 120.5468372486042,15.43675489979756,0 120.5463772104854,15.43676133063404,0 
							</coordinates>
						</LinearRing>
					</outerBoundaryIs>
				</Polygon>
			</MultiGeometry>
			<Polygon>
				<tessellate>1</tessellate>
				<outerBoundaryIs>
					<LinearRing>
						<coordinates>
							120.5464788898013,15.43536338610405,0 120.5464793736777,15.43532236686543,0 120.5470877046943,15.43532570089761,0 120.5470880630695,15.43536436199788,0 120.5464788898013,15.43536338610405,0 
						</coordinates>
					</LinearRing>
				</outerBoundaryIs>
			</Polygon>
			<Polygon>
				<tessellate>1</tessellate>
				<outerBoundaryIs>
					<LinearRing>
						<coordinates>
							120.5466520149999,15.43593104459838,0 120.5466564480158,15.43588944817683,0 120.5478703704837,15.435891112015,0 120.5478696398527,15.43592881258251,0 120.5466520149999,15.43593104459838,0 
						</coordinates>
					</LinearRing>
				</outerBoundaryIs>
			</Polygon>
			<MultiGeometry>
				<Polygon>
					<tessellate>1</tessellate>
					<outerBoundaryIs>
						<LinearRing>
							<coordinates>
								120.5466721845735,15.43597720559657,0 120.546672549357,15.43594239174363,0 120.547892459395,15.43594081380095,0 120.5478902422685,15.43598129434679,0 120.5466721845735,15.43597720559657,0 
							</coordinates>
						</LinearRing>
					</outerBoundaryIs>
				</Polygon>
				<Polygon>
					<tessellate>1</tessellate>
					<outerBoundaryIs>
						<LinearRing>
							<coordinates>
								120.546692287853,15.43603374981084,0 120.5466937387861,15.43599543923296,0 120.547758250637,15.43599706705848,0 120.547756403266,15.43603261611874,0 120.546692287853,15.43603374981084,0 
							</coordinates>
						</LinearRing>
					</outerBoundaryIs>
				</Polygon>
				<Polygon>
					<tessellate>1</tessellate>
					<outerBoundaryIs>
						<LinearRing>
							<coordinates>
								120.546719977116,15.43608507173132,0 120.5467175965159,15.43604443285822,0 120.5477811760562,15.4360462404834,0 120.5477797043646,15.43608306011389,0 120.546719977116,15.43608507173132,0 
							</coordinates>
						</LinearRing>
					</outerBoundaryIs>
				</Polygon>
				<Polygon>
					<tessellate>1</tessellate>
					<outerBoundaryIs>
						<LinearRing>
							<coordinates>
								120.5467363808111,15.43613356840303,0 120.5467299222994,15.43609658612527,0 120.5476373099243,15.43609640563381,0 120.5476367605261,15.43613582706738,0 120.5467363808111,15.43613356840303,0 
							</coordinates>
						</LinearRing>
					</outerBoundaryIs>
				</Polygon>
				<Polygon>
					<tessellate>1</tessellate>
					<outerBoundaryIs>
						<LinearRing>
							<coordinates>
								120.546744230934,15.43618770397799,0 120.5467408680287,15.43615012740998,0 120.5476462763561,15.43614942667262,0 120.5476563272225,15.43618625266921,0 120.546744230934,15.43618770397799,0 
							</coordinates>
						</LinearRing>
					</outerBoundaryIs>
				</Polygon>
				<Polygon>
					<tessellate>1</tessellate>
					<outerBoundaryIs>
						<LinearRing>
							<coordinates>
								120.5467612630192,15.43623765766849,0 120.5467599123242,15.43620099556055,0 120.547519627684,15.4362048302239,0 120.5475268702207,15.43624305656559,0 120.5467612630192,15.43623765766849,0 
							</coordinates>
						</LinearRing>
					</outerBoundaryIs>
				</Polygon>
				<Polygon>
					<tessellate>1</tessellate>
					<outerBoundaryIs>
						<LinearRing>
							<coordinates>
								120.5467869319689,15.43629100396141,0 120.5467858582166,15.4362502908588,0 120.5475460134573,15.43625043198846,0 120.5475488319384,15.43629065727676,0 120.5467869319689,15.43629100396141,0 
							</coordinates>
						</LinearRing>
					</outerBoundaryIs>
				</Polygon>
			</MultiGeometry>
			<Polygon>
				<tessellate>1</tessellate>
				<outerBoundaryIs>
					<LinearRing>
						<coordinates>
							120.5468123997775,15.43633902280916,0 120.5468109674481,15.43630198663199,0 120.5474162356529,15.43630394780304,0 120.5474162742221,15.43634082995681,0 120.5468123997775,15.43633902280916,0 
						</coordinates>
					</LinearRing>
				</outerBoundaryIs>
			</Polygon>
			<Polygon>
				<tessellate>1</tessellate>
				<outerBoundaryIs>
					<LinearRing>
						<coordinates>
							120.5468206862914,15.43639212131719,0 120.5468226317755,15.43635245731429,0 120.5474317531723,15.43635354222785,0 120.5474336304798,15.43639054877236,0 120.5468206862914,15.43639212131719,0 
						</coordinates>
					</LinearRing>
				</outerBoundaryIs>
			</Polygon>
			<Polygon>
				<tessellate>1</tessellate>
				<outerBoundaryIs>
					<LinearRing>
						<coordinates>
							120.5468436618021,15.43644261031729,0 120.5468394749564,15.43640459561335,0 120.5473011201615,15.43640400295726,0 120.5472983434732,15.43644262618102,0 120.5468436618021,15.43644261031729,0 
						</coordinates>
					</LinearRing>
				</outerBoundaryIs>
			</Polygon>
			<Polygon>
				<tessellate>1</tessellate>
				<outerBoundaryIs>
					<LinearRing>
						<coordinates>
							120.5468537206341,15.43649239787326,0 120.546854885275,15.43645356489525,0 120.5473108700768,15.43645633521418,0 120.5473089868753,15.43649416329866,0 120.5468537206341,15.43649239787326,0 
						</coordinates>
					</LinearRing>
				</outerBoundaryIs>
			</Polygon>
			<Polygon>
				<tessellate>1</tessellate>
				<outerBoundaryIs>
					<LinearRing>
						<coordinates>
							120.5468681889701,15.4365452173516,0 120.5468649348019,15.43650888309208,0 120.5473206121272,15.43650842175271,0 120.5473218787332,15.43654420456231,0 120.5468681889701,15.4365452173516,0 
						</coordinates>
					</LinearRing>
				</outerBoundaryIs>
			</Polygon>
			<Polygon>
				<tessellate>1</tessellate>
				<outerBoundaryIs>
					<LinearRing>
						<coordinates>
							120.5468870251319,15.43659765302604,0 120.5468864124342,15.43655958205683,0 120.5471897884249,15.43655904381241,0 120.5471887305513,15.43659520670838,0 120.5468870251319,15.43659765302604,0 
						</coordinates>
					</LinearRing>
				</outerBoundaryIs>
			</Polygon>
			<Polygon>
				<tessellate>1</tessellate>
				<outerBoundaryIs>
					<LinearRing>
						<coordinates>
							120.5469024132175,15.43664815370325,0 120.5468991672056,15.43661004194265,0 120.5472063690178,15.43661181114875,0 120.5472053556933,15.43664762863961,0 120.5469024132175,15.43664815370325,0 
						</coordinates>
					</LinearRing>
				</outerBoundaryIs>
			</Polygon>
			<Polygon>
				<tessellate>1</tessellate>
				<outerBoundaryIs>
					<LinearRing>
						<coordinates>
							120.5469861391866,15.43670086439657,0 120.5469846742322,15.43666265572384,0 120.5471397795508,15.43666115244813,0 120.5471378487828,15.43670122794222,0 120.5469861391866,15.43670086439657,0 
						</coordinates>
					</LinearRing>
				</outerBoundaryIs>
			</Polygon>
		</MultiGeometry>
		<atom:link rel="app" href="https://www.google.com/earth/about/versions/#earth-pro" title="Google Earth Pro 7.3.7.1327"></atom:link>
	</Placemark>
</Document>
</kml>
