<?xml version="1.0" encoding="UTF-8"?>
<kml xmlns="http://www.opengis.net/kml/2.2" xmlns:gx="http://www.google.com/kml/ext/2.2" xmlns:kml="http://www.opengis.net/kml/2.2" xmlns:atom="http://www.w3.org/2005/Atom">
<Document>
	<name>block1.kml</name>
	<StyleMap id="m_ylw-pushpin1">
		<Pair>
			<key>normal</key>
			<styleUrl>#s_ylw-pushpin</styleUrl>
		</Pair>
		<Pair>
			<key>highlight</key>
			<styleUrl>#s_ylw-pushpin_hl1</styleUrl>
		</Pair>
	</StyleMap>
	<Style id="s_ylw-pushpin">
		<IconStyle>
			<scale>1.1</scale>
			<Icon>
				<href>http://maps.google.com/mapfiles/kml/pushpin/ylw-pushpin.png</href>
			</Icon>
			<hotSpot x="20" y="2" xunits="pixels" yunits="pixels"/>
		</IconStyle>
		<PolyStyle>
			<color>1affffff</color>
		</PolyStyle>
	</Style>
	<Style id="s_ylw-pushpin_hl1">
		<IconStyle>
			<scale>1.3</scale>
			<Icon>
				<href>http://maps.google.com/mapfiles/kml/pushpin/ylw-pushpin.png</href>
			</Icon>
			<hotSpot x="20" y="2" xunits="pixels" yunits="pixels"/>
		</IconStyle>
		<PolyStyle>
			<color>1affffff</color>
		</PolyStyle>
	</Style>
	<Placemark>
		<name>block1</name>
		<snippet></snippet>
		<styleUrl>#m_ylw-pushpin1</styleUrl>
		<MultiGeometry>
			<MultiGeometry>
				<MultiGeometry>
					<MultiGeometry>
						<MultiGeometry>
							<MultiGeometry>
								<MultiGeometry>
									<Polygon>
										<tessellate>1</tessellate>
										<outerBoundaryIs>
											<LinearRing>
												<coordinates>
													120.545952991831,15.44021989457018,0 120.5459556421753,15.44018268362941,0 120.5462575911608,15.44017892086801,0 120.5462548066058,15.44021727298717,0 120.545952991831,15.44021989457018,0 
												</coordinates>
											</LinearRing>
										</outerBoundaryIs>
									</Polygon>
									<Polygon>
										<tessellate>1</tessellate>
										<outerBoundaryIs>
											<LinearRing>
												<coordinates>
													120.5458540960275,15.44017124497672,0 120.545859239026,15.44013156187622,0 120.5462360784949,15.44012972500399,0 120.5462341797707,15.44016718666113,0 120.5458540960275,15.44017124497672,0 
												</coordinates>
											</LinearRing>
										</outerBoundaryIs>
									</Polygon>
									<MultiGeometry>
										<MultiGeometry>
											<Polygon>
												<tessellate>1</tessellate>
												<outerBoundaryIs>
													<LinearRing>
														<coordinates>
															120.545827011882,15.44011859364505,0 120.5458319001928,15.44007871610303,0 120.5462127660818,15.44007805235534,0 120.5462091494488,15.44011650546866,0 120.545827011882,15.44011859364505,0 
														</coordinates>
													</LinearRing>
												</outerBoundaryIs>
											</Polygon>
											<Polygon>
												<tessellate>1</tessellate>
												<outerBoundaryIs>
													<LinearRing>
														<coordinates>
															120.5458029939323,15.44006691646839,0 120.5458107324454,15.44002719173178,0 120.5461883219437,15.44002602632144,0 120.5461827873823,15.4400653429614,0 120.5458029939323,15.44006691646839,0 
														</coordinates>
													</LinearRing>
												</outerBoundaryIs>
											</Polygon>
											<Polygon>
												<tessellate>1</tessellate>
												<outerBoundaryIs>
													<LinearRing>
														<coordinates>
															120.5457873848308,15.44001083022744,0 120.545788597506,15.43997788826865,0 120.5461640149057,15.43997758155523,0 120.5461638896353,15.4400123177571,0 120.5457873848308,15.44001083022744,0 
														</coordinates>
													</LinearRing>
												</outerBoundaryIs>
											</Polygon>
											<Polygon>
												<tessellate>1</tessellate>
												<outerBoundaryIs>
													<LinearRing>
														<coordinates>
															120.545754759456,15.43996047034096,0 120.5457603858962,15.43992394211932,0 120.546137583487,15.43992402786099,0 120.5461337573517,15.43995971795909,0 120.545754759456,15.43996047034096,0 
														</coordinates>
													</LinearRing>
												</outerBoundaryIs>
											</Polygon>
											<Polygon>
												<tessellate>1</tessellate>
												<outerBoundaryIs>
													<LinearRing>
														<coordinates>
															120.5457396664345,15.43990980632548,0 120.5457397123468,15.43987439309181,0 120.5461209974686,15.43987469846846,0 120.5461208194107,15.4399111639045,0 120.5457396664345,15.43990980632548,0 
														</coordinates>
													</LinearRing>
												</outerBoundaryIs>
											</Polygon>
											<Polygon>
												<tessellate>1</tessellate>
												<outerBoundaryIs>
													<LinearRing>
														<coordinates>
															120.5456626404206,15.43985817896777,0 120.5456693037073,15.43982249606197,0 120.5461222653394,15.43982267600188,0 120.5461166563805,15.43985935367503,0 120.5456626404206,15.43985817896777,0 
														</coordinates>
													</LinearRing>
												</outerBoundaryIs>
											</Polygon>
											<Polygon>
												<tessellate>1</tessellate>
												<outerBoundaryIs>
													<LinearRing>
														<coordinates>
															120.5456350598419,15.43980935016889,0 120.5456386130322,15.4397710585448,0 120.5460948458271,15.43976926247718,0 120.5460895773198,15.43980882816734,0 120.5456350598419,15.43980935016889,0 
														</coordinates>
													</LinearRing>
												</outerBoundaryIs>
											</Polygon>
										</MultiGeometry>
										<Polygon>
											<tessellate>1</tessellate>
											<outerBoundaryIs>
												<LinearRing>
													<coordinates>
														120.5456048477828,15.43975834736324,0 120.5456073307321,15.43971736941831,0 120.5460647254231,15.43971718942938,0 120.5460638282556,15.43975587673493,0 120.5456048477828,15.43975834736324,0 
													</coordinates>
												</LinearRing>
											</outerBoundaryIs>
										</Polygon>
										<MultiGeometry>
											<Polygon>
												<tessellate>1</tessellate>
												<outerBoundaryIs>
													<LinearRing>
														<coordinates>
															120.5455905173765,15.43970389651917,0 120.5455935035732,15.43966636295183,0 120.5460506761041,15.43966803048066,0 120.5460493691525,15.43970602030158,0 120.5455905173765,15.43970389651917,0 
														</coordinates>
													</LinearRing>
												</outerBoundaryIs>
											</Polygon>
											<Polygon>
												<tessellate>1</tessellate>
												<outerBoundaryIs>
													<LinearRing>
														<coordinates>
															120.5455635243893,15.43965565217049,0 120.5455644711754,15.43961449444902,0 120.546022285567,15.43961666406072,0 120.5460224860259,15.43965213751445,0 120.5455635243893,15.43965565217049,0 
														</coordinates>
													</LinearRing>
												</outerBoundaryIs>
											</Polygon>
											<Polygon>
												<tessellate>1</tessellate>
												<outerBoundaryIs>
													<LinearRing>
														<coordinates>
															120.5455371088864,15.43960347139366,0 120.545536986641,15.43956669249496,0 120.5459947994436,15.43956541593179,0 120.545998383265,15.4396004715317,0 120.5455371088864,15.43960347139366,0 
														</coordinates>
													</LinearRing>
												</outerBoundaryIs>
											</Polygon>
											<Polygon>
												<tessellate>1</tessellate>
												<outerBoundaryIs>
													<LinearRing>
														<coordinates>
															120.5455184735873,15.43955273633065,0 120.5455186317909,15.4395124705654,0 120.5459728748251,15.43951587644571,0 120.5459711368983,15.43955222728717,0 120.5455184735873,15.43955273633065,0 
														</coordinates>
													</LinearRing>
												</outerBoundaryIs>
											</Polygon>
											<Polygon>
												<tessellate>1</tessellate>
												<outerBoundaryIs>
													<LinearRing>
														<coordinates>
															120.5454945653063,15.43950083491601,0 120.5454971165799,15.43946116279251,0 120.5459529370053,15.43946068978405,0 120.5459528913836,15.43949987279223,0 120.5454945653063,15.43950083491601,0 
														</coordinates>
													</LinearRing>
												</outerBoundaryIs>
											</Polygon>
										</MultiGeometry>
										<Polygon>
											<tessellate>1</tessellate>
											<outerBoundaryIs>
												<LinearRing>
													<coordinates>
														120.5454642193828,15.43944932376986,0 120.545469514688,15.43941088744679,0 120.5459210739967,15.43941150087126,0 120.5459196799756,15.43944772341673,0 120.5454642193828,15.43944932376986,0 
													</coordinates>
												</LinearRing>
											</outerBoundaryIs>
										</Polygon>
										<Polygon>
											<tessellate>1</tessellate>
											<outerBoundaryIs>
												<LinearRing>
													<coordinates>
														120.5454656230451,15.43939615019903,0 120.5454668953685,15.43936043455614,0 120.5459182673016,15.43936038619475,0 120.545918915471,15.43939448643474,0 120.5454656230451,15.43939615019903,0 
													</coordinates>
												</LinearRing>
											</outerBoundaryIs>
										</Polygon>
										<Polygon>
											<tessellate>1</tessellate>
											<outerBoundaryIs>
												<LinearRing>
													<coordinates>
														120.5453664206769,15.43934378350328,0 120.5453716912462,15.43930767088492,0 120.5459034271354,15.43930953715185,0 120.545899415517,15.43934407687414,0 120.5453664206769,15.43934378350328,0 
													</coordinates>
												</LinearRing>
											</outerBoundaryIs>
										</Polygon>
										<Polygon>
											<tessellate>1</tessellate>
											<outerBoundaryIs>
												<LinearRing>
													<coordinates>
														120.5453432038233,15.43929775932709,0 120.5453419754708,15.43929079201235,0 120.5453403362352,15.4392580043101,0 120.5456248533855,15.43925792872617,0 120.5458785772392,15.43925820693539,0 120.5458796754033,15.43929320844639,0 120.5453432038233,15.43929775932709,0 
													</coordinates>
												</LinearRing>
											</outerBoundaryIs>
										</Polygon>
										<Polygon>
											<tessellate>1</tessellate>
											<outerBoundaryIs>
												<LinearRing>
													<coordinates>
														120.5453241319887,15.43924706371281,0 120.545327886513,15.43920648465098,0 120.5458582133871,15.43920409292166,0 120.5458584452495,15.43924300276547,0 120.5453241319887,15.43924706371281,0 
													</coordinates>
												</LinearRing>
											</outerBoundaryIs>
										</Polygon>
									</MultiGeometry>
									<MultiGeometry>
										<MultiGeometry>
											<Polygon>
												<tessellate>1</tessellate>
												<outerBoundaryIs>
													<LinearRing>
														<coordinates>
															120.5453114148371,15.43919035976595,0 120.5453104688135,15.43915286950199,0 120.5458381179296,15.43915274565762,0 120.545837963231,15.43919104403798,0 120.5453114148371,15.43919035976595,0 
														</coordinates>
													</LinearRing>
												</outerBoundaryIs>
											</Polygon>
											<Polygon>
												<tessellate>1</tessellate>
												<outerBoundaryIs>
													<LinearRing>
														<coordinates>
															120.5453049247932,15.43914192807425,0 120.5453056470461,15.43910319316185,0 120.545919748415,15.43910212915091,0 120.5459191994239,15.43914022393234,0 120.5453049247932,15.43914192807425,0 
														</coordinates>
													</LinearRing>
												</outerBoundaryIs>
											</Polygon>
											<Polygon>
												<tessellate>1</tessellate>
												<outerBoundaryIs>
													<LinearRing>
														<coordinates>
															120.5453014047854,15.43909052495631,0 120.545303653763,15.43904969680523,0 120.5465238210632,15.43904776602239,0 120.546525886253,15.43908393164621,0 120.5453014047854,15.43909052495631,0 
														</coordinates>
													</LinearRing>
												</outerBoundaryIs>
											</Polygon>
											<Polygon>
												<tessellate>1</tessellate>
												<outerBoundaryIs>
													<LinearRing>
														<coordinates>
															120.545301238374,15.43903607749617,0 120.545305185496,15.43899922313661,0 120.546522833956,15.4389966683649,0 120.5465246740876,15.43903136113276,0 120.545301238374,15.43903607749617,0 
														</coordinates>
													</LinearRing>
												</outerBoundaryIs>
											</Polygon>
											<Polygon>
												<tessellate>1</tessellate>
												<outerBoundaryIs>
													<LinearRing>
														<coordinates>
															120.5453033503023,15.43899001357024,0 120.5453059284133,15.43894654513652,0 120.5465210080542,15.43894542735655,0 120.5465207604822,15.43898205759431,0 120.5453033503023,15.43899001357024,0 
														</coordinates>
													</LinearRing>
												</outerBoundaryIs>
											</Polygon>
											<Polygon>
												<tessellate>1</tessellate>
												<outerBoundaryIs>
													<LinearRing>
														<coordinates>
															120.5454258944416,15.43893467842329,0 120.5454249900386,15.43889779404262,0 120.5464877886861,15.43889290271647,0 120.5464871096736,15.43893208121048,0 120.5454258944416,15.43893467842329,0 
														</coordinates>
													</LinearRing>
												</outerBoundaryIs>
											</Polygon>
											<Polygon>
												<tessellate>1</tessellate>
												<outerBoundaryIs>
													<LinearRing>
														<coordinates>
															120.5454246599359,15.43888308155269,0 120.5454247182702,15.43884813377609,0 120.5464850365246,15.43884461970269,0 120.5464816525037,15.43888245623913,0 120.5454246599359,15.43888308155269,0 
														</coordinates>
													</LinearRing>
												</outerBoundaryIs>
											</Polygon>
											<Polygon>
												<tessellate>1</tessellate>
												<outerBoundaryIs>
													<LinearRing>
														<coordinates>
															120.5455334810713,15.43883338241688,0 120.545533346794,15.43879565970362,0 120.5464461395083,15.43879317717525,0 120.5464466132844,15.43882990826768,0 120.5455334810713,15.43883338241688,0 
														</coordinates>
													</LinearRing>
												</outerBoundaryIs>
											</Polygon>
										</MultiGeometry>
										<Polygon>
											<tessellate>1</tessellate>
											<outerBoundaryIs>
												<LinearRing>
													<coordinates>
														120.5456441545264,15.43878402093429,0 120.5456416606503,15.43874064431378,0 120.5464049842765,15.43874074362082,0 120.546403186562,15.4387794844561,0 120.5456441545264,15.43878402093429,0 
													</coordinates>
												</LinearRing>
											</outerBoundaryIs>
										</Polygon>
										<Polygon>
											<tessellate>1</tessellate>
											<outerBoundaryIs>
												<LinearRing>
													<coordinates>
														120.5456450960509,15.43872673171361,0 120.5456453179029,15.43869046989768,0 120.5464068265674,15.43868948953165,0 120.5464065244483,15.43872689384655,0 120.5456450960509,15.43872673171361,0 
													</coordinates>
												</LinearRing>
											</outerBoundaryIs>
										</Polygon>
										<Polygon>
											<tessellate>1</tessellate>
											<outerBoundaryIs>
												<LinearRing>
													<coordinates>
														120.5456426606733,15.43867542070416,0 120.545638987059,15.43863872632325,0 120.5464046385685,15.43863968876958,0 120.5464027176079,15.4386788941206,0 120.5456426606733,15.43867542070416,0 
													</coordinates>
												</LinearRing>
											</outerBoundaryIs>
										</Polygon>
										<Polygon>
											<tessellate>1</tessellate>
											<outerBoundaryIs>
												<LinearRing>
													<coordinates>
														120.5457433212526,15.43862661171036,0 120.5457448714463,15.43858873913843,0 120.5463553389995,15.43858982529675,0 120.5463561684146,15.43862501633681,0 120.5457433212526,15.43862661171036,0 
													</coordinates>
												</LinearRing>
											</outerBoundaryIs>
										</Polygon>
										<Polygon>
											<tessellate>1</tessellate>
											<outerBoundaryIs>
												<LinearRing>
													<coordinates>
														120.5457464068039,15.43857668834528,0 120.5457478830462,15.43853608943992,0 120.5463561262206,15.43853844868846,0 120.5463514022926,15.4385762923535,0 120.5457464068039,15.43857668834528,0 
													</coordinates>
												</LinearRing>
											</outerBoundaryIs>
										</Polygon>
										<Polygon>
											<tessellate>1</tessellate>
											<outerBoundaryIs>
												<LinearRing>
													<coordinates>
														120.5458454014304,15.43852364283551,0 120.5458469184402,15.43848811634721,0 120.5463062623323,15.43848400517256,0 120.5463069803937,15.43852362609548,0 120.5458454014304,15.43852364283551,0 
													</coordinates>
												</LinearRing>
											</outerBoundaryIs>
										</Polygon>
										<Polygon>
											<tessellate>1</tessellate>
											<outerBoundaryIs>
												<LinearRing>
													<coordinates>
														120.5458461096107,15.4384723941445,0 120.5458451123254,15.43843149312611,0 120.5463066225895,15.43843092129099,0 120.5463043901341,15.43847055762798,0 120.5458461096107,15.4384723941445,0 
													</coordinates>
												</LinearRing>
											</outerBoundaryIs>
										</Polygon>
									</MultiGeometry>
									<Polygon>
										<tessellate>1</tessellate>
										<outerBoundaryIs>
											<LinearRing>
												<coordinates>
													120.5458479390996,15.43842089584983,0 120.5458479760789,15.43838113782274,0 120.546303660206,15.4383845592373,0 120.546299380532,15.43842086731438,0 120.5458479390996,15.43842089584983,0 
												</coordinates>
											</LinearRing>
										</outerBoundaryIs>
									</Polygon>
									<Polygon>
										<tessellate>1</tessellate>
										<outerBoundaryIs>
											<LinearRing>
												<coordinates>
													120.545960518754,15.43837000119816,0 120.5459603828535,15.43833235044729,0 120.5462639766789,15.43833103090145,0 120.546264204926,15.43836757221213,0 120.545960518754,15.43837000119816,0 
												</coordinates>
											</LinearRing>
										</outerBoundaryIs>
									</Polygon>
									<Polygon>
										<tessellate>1</tessellate>
										<outerBoundaryIs>
											<LinearRing>
												<coordinates>
													120.5459599977362,15.43831941891451,0 120.5459620482113,15.43828294859175,0 120.5462611658548,15.43828036223978,0 120.5462601612469,15.43831901743035,0 120.5459599977362,15.43831941891451,0 
												</coordinates>
											</LinearRing>
										</outerBoundaryIs>
									</Polygon>
									<MultiGeometry>
										<Polygon>
											<tessellate>1</tessellate>
											<outerBoundaryIs>
												<LinearRing>
													<coordinates>
														120.5460911200221,15.43826814501646,0 120.5460899042017,15.43823040642092,0 120.5462450617264,15.43822696964173,0 120.5462395959117,15.43826538591905,0 120.5460911200221,15.43826814501646,0 
													</coordinates>
												</LinearRing>
											</outerBoundaryIs>
										</Polygon>
										<Polygon>
											<tessellate>1</tessellate>
											<outerBoundaryIs>
												<LinearRing>
													<coordinates>
														120.5460726133575,15.43821881078762,0 120.5460717139261,15.43817672725369,0 120.5462244909971,15.43817528612533,0 120.5462233311375,15.43821613222931,0 120.5460726133575,15.43821881078762,0 
													</coordinates>
												</LinearRing>
											</outerBoundaryIs>
										</Polygon>
										<Polygon>
											<tessellate>1</tessellate>
											<outerBoundaryIs>
												<LinearRing>
													<coordinates>
														120.5450453156477,15.43850963458509,0 120.5450444342428,15.43847014773255,0 120.5451946091413,15.43847304935454,0 120.5451946452827,15.43851252548523,0 120.5450453156477,15.43850963458509,0 
													</coordinates>
												</LinearRing>
											</outerBoundaryIs>
										</Polygon>
										<Polygon>
											<tessellate>1</tessellate>
											<outerBoundaryIs>
												<LinearRing>
													<coordinates>
														120.5450423158059,15.43846031788325,0 120.5450427977015,15.43842328982804,0 120.5451975769148,15.43842635520759,0 120.5451957863428,15.43846250670411,0 120.5450423158059,15.43846031788325,0 
													</coordinates>
												</LinearRing>
											</outerBoundaryIs>
										</Polygon>
										<Polygon>
											<tessellate>1</tessellate>
											<outerBoundaryIs>
												<LinearRing>
													<coordinates>
														120.54501621488,15.4384100090462,0 120.5450171525769,15.43837004798871,0 120.5453142709541,15.43837357352034,0 120.5453130608527,15.43841212835106,0 120.54501621488,15.4384100090462,0 
													</coordinates>
												</LinearRing>
											</outerBoundaryIs>
										</Polygon>
										<Polygon>
											<tessellate>1</tessellate>
											<outerBoundaryIs>
												<LinearRing>
													<coordinates>
														120.5450039134742,15.43835872581959,0 120.5450071845037,15.43831985086659,0 120.5453057874047,15.43832243322079,0 120.545303295058,15.43836202225199,0 120.5450039134742,15.43835872581959,0 
													</coordinates>
												</LinearRing>
											</outerBoundaryIs>
										</Polygon>
										<Polygon>
											<tessellate>1</tessellate>
											<outerBoundaryIs>
												<LinearRing>
													<coordinates>
														120.5449925704022,15.43830779278918,0 120.5449906625788,15.43826669050693,0 120.5454474995417,15.43826789773437,0 120.545444311139,15.43830669059837,0 120.5449925704022,15.43830779278918,0 
													</coordinates>
												</LinearRing>
											</outerBoundaryIs>
										</Polygon>
									</MultiGeometry>
									<MultiGeometry>
										<Polygon>
											<tessellate>1</tessellate>
											<outerBoundaryIs>
												<LinearRing>
													<coordinates>
														120.5449750856445,15.4382575466185,0 120.5449763670958,15.4382162705599,0 120.5454324555392,15.43821876967582,0 120.5454292706435,15.43825754093717,0 120.5449750856445,15.4382575466185,0 
													</coordinates>
												</LinearRing>
											</outerBoundaryIs>
										</Polygon>
										<Polygon>
											<tessellate>1</tessellate>
											<outerBoundaryIs>
												<LinearRing>
													<coordinates>
														120.5449573542045,15.43820534368961,0 120.5449642943256,15.43816713194565,0 120.5455664930273,15.4381668262647,0 120.5455666286043,15.43820567697745,0 120.5449573542045,15.43820534368961,0 
													</coordinates>
												</LinearRing>
											</outerBoundaryIs>
										</Polygon>
										<Polygon>
											<tessellate>1</tessellate>
											<outerBoundaryIs>
												<LinearRing>
													<coordinates>
														120.5449469962974,15.43815359931437,0 120.5449474076789,15.43811334903492,0 120.5455525871615,15.43811370957423,0 120.5455505134295,15.43815474160455,0 120.5449469962974,15.43815359931437,0 
													</coordinates>
												</LinearRing>
											</outerBoundaryIs>
										</Polygon>
										<Polygon>
											<tessellate>1</tessellate>
											<outerBoundaryIs>
												<LinearRing>
													<coordinates>
														120.5449328171228,15.43809987605881,0 120.544933604829,15.43806249038558,0 120.5456896861132,15.43806383333387,0 120.5456893639662,15.43810159205656,0 120.5449328171228,15.43809987605881,0 
													</coordinates>
												</LinearRing>
											</outerBoundaryIs>
										</Polygon>
										<Polygon>
											<tessellate>1</tessellate>
											<outerBoundaryIs>
												<LinearRing>
													<coordinates>
														120.5449165794388,15.43804893090109,0 120.5449177242266,15.43801268322271,0 120.5456757970075,15.43801078889797,0 120.5456759395209,15.43805104353974,0 120.5449165794388,15.43804893090109,0 
													</coordinates>
												</LinearRing>
											</outerBoundaryIs>
										</Polygon>
										<Polygon>
											<tessellate>1</tessellate>
											<outerBoundaryIs>
												<LinearRing>
													<coordinates>
														120.5449015077751,15.43799891999326,0 120.5449014285059,15.43795985790984,0 120.5458161645894,15.4379610639937,0 120.5458121009281,15.43799827100112,0 120.5449015077751,15.43799891999326,0 
													</coordinates>
												</LinearRing>
											</outerBoundaryIs>
										</Polygon>
										<Polygon>
											<tessellate>1</tessellate>
											<outerBoundaryIs>
												<LinearRing>
													<coordinates>
														120.5448896748279,15.43794676978366,0 120.5448881209674,15.43790756280044,0 120.5457985563355,15.43790752255535,0 120.5457977094725,15.43794782793188,0 120.5448896748279,15.43794676978366,0 
													</coordinates>
												</LinearRing>
											</outerBoundaryIs>
										</Polygon>
										<Polygon>
											<tessellate>1</tessellate>
											<outerBoundaryIs>
												<LinearRing>
													<coordinates>
														120.5448723814414,15.43789816144734,0 120.5448718266359,15.43785857919202,0 120.5459385792039,15.43785920099741,0 120.5459370726738,15.43789520757035,0 120.5448723814414,15.43789816144734,0 
													</coordinates>
												</LinearRing>
											</outerBoundaryIs>
										</Polygon>
									</MultiGeometry>
								</MultiGeometry>
								<Polygon>
									<tessellate>1</tessellate>
									<outerBoundaryIs>
										<LinearRing>
											<coordinates>
												120.5448620793022,15.43784552429362,0 120.5448638428438,15.43780598510661,0 120.5459284973358,15.43780496711748,0 120.5459257682765,15.43784380495074,0 120.5448620793022,15.43784552429362,0 
											</coordinates>
										</LinearRing>
									</outerBoundaryIs>
								</Polygon>
								<Polygon>
									<tessellate>1</tessellate>
									<outerBoundaryIs>
										<LinearRing>
											<coordinates>
												120.5448564026884,15.43779436246431,0 120.5448526439607,15.43775089934019,0 120.5460039243197,15.43775156423919,0 120.5460053360303,15.43778891715587,0 120.5448564026884,15.43779436246431,0 
											</coordinates>
										</LinearRing>
									</outerBoundaryIs>
								</Polygon>
								<Polygon>
									<tessellate>1</tessellate>
									<outerBoundaryIs>
										<LinearRing>
											<coordinates>
												120.5448383043885,15.43774081025926,0 120.5448371734871,15.43770374205972,0 120.5459867785496,15.43770006804191,0 120.5459868582102,15.43774013052118,0 120.5448383043885,15.43774081025926,0 
											</coordinates>
										</LinearRing>
									</outerBoundaryIs>
								</Polygon>
								<Polygon>
									<tessellate>1</tessellate>
									<outerBoundaryIs>
										<LinearRing>
											<coordinates>
												120.5448296351971,15.43769337828667,0 120.5448283063042,15.43765348648359,0 120.545979258548,15.43764958143173,0 120.5459779342814,15.43768701643513,0 120.5448296351971,15.43769337828667,0 
											</coordinates>
										</LinearRing>
									</outerBoundaryIs>
								</Polygon>
								<Polygon>
									<tessellate>1</tessellate>
									<outerBoundaryIs>
										<LinearRing>
											<coordinates>
												120.5448240987992,15.43764169764298,0 120.5448240436455,15.43760225806576,0 120.5459765598086,15.43759644638109,0 120.5459764872266,15.43763249230109,0 120.5448240987992,15.43764169764298,0 
											</coordinates>
										</LinearRing>
									</outerBoundaryIs>
								</Polygon>
								<Polygon>
									<tessellate>1</tessellate>
									<outerBoundaryIs>
										<LinearRing>
											<coordinates>
												120.5448122277511,15.43759194214079,0 120.5448087644976,15.43755581635976,0 120.5459627516376,15.437545136141,0 120.545958647487,15.43758401706088,0 120.5448122277511,15.43759194214079,0 
											</coordinates>
										</LinearRing>
									</outerBoundaryIs>
								</Polygon>
								<MultiGeometry>
									<Polygon>
										<tessellate>1</tessellate>
										<outerBoundaryIs>
											<LinearRing>
												<coordinates>
													120.5447912903961,15.43754450406687,0 120.544794862773,15.43750772234536,0 120.5451014555011,15.43750047357555,0 120.5451015732608,15.437539588313,0 120.5447912903961,15.43754450406687,0 
												</coordinates>
											</LinearRing>
										</outerBoundaryIs>
									</Polygon>
									<Polygon>
										<tessellate>1</tessellate>
										<outerBoundaryIs>
											<LinearRing>
												<coordinates>
													120.5451129154726,15.43754175302215,0 120.5451112672496,15.43750009159302,0 120.5459574531481,15.43749700781976,0 120.5459547024112,15.43753580720501,0 120.5451129154726,15.43754175302215,0 
												</coordinates>
											</LinearRing>
										</outerBoundaryIs>
									</Polygon>
									<Polygon>
										<tessellate>1</tessellate>
										<outerBoundaryIs>
											<LinearRing>
												<coordinates>
													120.5447717509084,15.43749251275858,0 120.5447741050665,15.4374522560996,0 120.5449315153936,15.43745222907022,0 120.5449286627397,15.4374913459128,0 120.5447717509084,15.43749251275858,0 
												</coordinates>
											</LinearRing>
										</outerBoundaryIs>
									</Polygon>
									<Polygon>
										<tessellate>1</tessellate>
										<outerBoundaryIs>
											<LinearRing>
												<coordinates>
													120.544989790484,15.43749746586732,0 120.5449893860684,15.43745175648206,0 120.5456075077046,15.43744568068751,0 120.5456103597403,15.43748424028352,0 120.544989790484,15.43749746586732,0 
												</coordinates>
											</LinearRing>
										</outerBoundaryIs>
									</Polygon>
									<Polygon>
										<tessellate>1</tessellate>
										<outerBoundaryIs>
											<LinearRing>
												<coordinates>
													120.545623003501,15.43748428372645,0 120.5456256892841,15.43744552020729,0 120.5459250430703,15.43744202215032,0 120.5459236671782,15.43748077549824,0 120.545623003501,15.43748428372645,0 
												</coordinates>
											</LinearRing>
										</outerBoundaryIs>
									</Polygon>
									<Polygon>
										<tessellate>1</tessellate>
										<outerBoundaryIs>
											<LinearRing>
												<coordinates>
													120.5451188986752,15.43744180804255,0 120.5451196726913,15.43740420054964,0 120.5458940368589,15.4373910079638,0 120.545895270193,15.43742567594679,0 120.5451188986752,15.43744180804255,0 
												</coordinates>
											</LinearRing>
										</outerBoundaryIs>
									</Polygon>
									<Polygon>
										<tessellate>1</tessellate>
										<outerBoundaryIs>
											<LinearRing>
												<coordinates>
													120.5452646379477,15.43738773206305,0 120.5452686721873,15.43734625227758,0 120.5458836781941,15.43733747015422,0 120.5458863800436,15.43737857111265,0 120.5452646379477,15.43738773206305,0 
												</coordinates>
											</LinearRing>
										</outerBoundaryIs>
									</Polygon>
								</MultiGeometry>
							</MultiGeometry>
							<Polygon>
								<tessellate>1</tessellate>
								<outerBoundaryIs>
									<LinearRing>
										<coordinates>
											120.545260835544,15.43733494143811,0 120.5452627042975,15.43729738701443,0 120.5458753457542,15.4372898754058,0 120.5458743403949,15.43732574998167,0 120.545260835544,15.43733494143811,0 
										</coordinates>
									</LinearRing>
								</outerBoundaryIs>
							</Polygon>
							<Polygon>
								<tessellate>1</tessellate>
								<outerBoundaryIs>
									<LinearRing>
										<coordinates>
											120.5453692339056,15.43728529276785,0 120.5453693697901,15.43724407618221,0 120.545831422072,15.4372378293301,0 120.5458300226663,15.43727625006837,0 120.5453692339056,15.43728529276785,0 
										</coordinates>
									</LinearRing>
								</outerBoundaryIs>
							</Polygon>
							<Polygon>
								<tessellate>1</tessellate>
								<outerBoundaryIs>
									<LinearRing>
										<coordinates>
											120.5453719633662,15.43723011850097,0 120.5453693002324,15.43719618761035,0 120.5458352792799,15.43718605595725,0 120.5458352370377,15.43721936880926,0 120.5453719633662,15.43723011850097,0 
										</coordinates>
									</LinearRing>
								</outerBoundaryIs>
							</Polygon>
							<Polygon>
								<tessellate>1</tessellate>
								<outerBoundaryIs>
									<LinearRing>
										<coordinates>
											120.5455023211885,15.43717661871203,0 120.5454995184282,15.4371406256933,0 120.5458060140588,15.43713492043265,0 120.5458037604811,15.43717100397247,0 120.5455023211885,15.43717661871203,0 
										</coordinates>
									</LinearRing>
								</outerBoundaryIs>
							</Polygon>
							<Polygon>
								<tessellate>1</tessellate>
								<outerBoundaryIs>
									<LinearRing>
										<coordinates>
											120.545488332756,15.43712558040572,0 120.5454851968515,15.43709356655409,0 120.5457883859577,15.43708435116073,0 120.5457881364897,15.43712171525768,0 120.545488332756,15.43712558040572,0 
										</coordinates>
									</LinearRing>
								</outerBoundaryIs>
							</Polygon>
							<Polygon>
								<tessellate>1</tessellate>
								<outerBoundaryIs>
									<LinearRing>
										<coordinates>
											120.5456026958187,15.43707404370229,0 120.5456031521333,15.43703760706459,0 120.545761735786,15.43703351709224,0 120.5457584716012,15.43707050187796,0 120.5456026958187,15.43707404370229,0 
										</coordinates>
									</LinearRing>
								</outerBoundaryIs>
							</Polygon>
						</MultiGeometry>
						<Polygon>
							<tessellate>1</tessellate>
							<outerBoundaryIs>
								<LinearRing>
									<coordinates>
										120.5456031877921,15.4370233335694,0 120.5456056238697,15.4369892403584,0 120.5457575911324,15.4369828218295,0 120.5457575978434,15.43701575820275,0 120.5456031877921,15.4370233335694,0 
									</coordinates>
								</LinearRing>
							</outerBoundaryIs>
						</Polygon>
						<Polygon>
							<tessellate>1</tessellate>
							<outerBoundaryIs>
								<LinearRing>
									<coordinates>
										120.5456108061199,15.43697532729978,0 120.545611526766,15.43693878584624,0 120.5460782107873,15.43693236457054,0 120.5460775527109,15.4369675450489,0 120.5456108061199,15.43697532729978,0 
									</coordinates>
								</LinearRing>
							</outerBoundaryIs>
						</Polygon>
						<Polygon>
							<tessellate>1</tessellate>
							<outerBoundaryIs>
								<LinearRing>
									<coordinates>
										120.5456665186393,15.43692086524441,0 120.5456661662276,15.43688526211541,0 120.545974586596,15.43688365662844,0 120.5459753520715,15.43691799033852,0 120.5456665186393,15.43692086524441,0 
									</coordinates>
								</LinearRing>
							</outerBoundaryIs>
						</Polygon>
						<Polygon>
							<tessellate>1</tessellate>
							<outerBoundaryIs>
								<LinearRing>
									<coordinates>
										120.545869228398,15.43701959469598,0 120.5458710787681,15.43698353546861,0 120.5461777142263,15.43698581559143,0 120.5461771479222,15.43702219414281,0 120.545869228398,15.43701959469598,0 
									</coordinates>
								</LinearRing>
							</outerBoundaryIs>
						</Polygon>
						<Polygon>
							<tessellate>1</tessellate>
							<outerBoundaryIs>
								<LinearRing>
									<coordinates>
										120.5460845357249,15.43706852736802,0 120.5460835493238,15.43703654562233,0 120.5462352066052,15.43703937932444,0 120.5462324424059,15.43707342779618,0 120.5460845357249,15.43706852736802,0 
									</coordinates>
								</LinearRing>
							</outerBoundaryIs>
						</Polygon>
					</MultiGeometry>
					<MultiGeometry>
						<Polygon>
							<tessellate>1</tessellate>
							<outerBoundaryIs>
								<LinearRing>
									<coordinates>
										120.5433386084047,15.43820791915718,0 120.5433366857925,15.43816764291729,0 120.5434876177941,15.43816638193697,0 120.5434884822351,15.43820466903319,0 120.5433386084047,15.43820791915718,0 
									</coordinates>
								</LinearRing>
							</outerBoundaryIs>
						</Polygon>
						<Polygon>
							<tessellate>1</tessellate>
							<outerBoundaryIs>
								<LinearRing>
									<coordinates>
										120.5432594648119,15.43815713663779,0 120.5432600617522,15.43811791498211,0 120.5436388842024,15.43811678033255,0 120.5436377942297,15.4381542770892,0 120.5432594648119,15.43815713663779,0 
									</coordinates>
								</LinearRing>
							</outerBoundaryIs>
						</Polygon>
						<Polygon>
							<tessellate>1</tessellate>
							<outerBoundaryIs>
								<LinearRing>
									<coordinates>
										120.5432380623451,15.43810862719885,0 120.5432365526229,15.43806685603173,0 120.5437923988868,15.43806305952462,0 120.5437891002002,15.43810584554564,0 120.5432380623451,15.43810862719885,0 
									</coordinates>
								</LinearRing>
							</outerBoundaryIs>
						</Polygon>
					</MultiGeometry>
					<MultiGeometry>
						<MultiGeometry>
							<Polygon>
								<tessellate>1</tessellate>
								<outerBoundaryIs>
									<LinearRing>
										<coordinates>
											120.5432065034434,15.4380533172998,0 120.5432068339718,15.43801541521053,0 120.5439478277397,15.43801531933968,0 120.5439450231077,15.43805511315487,0 120.5432065034434,15.4380533172998,0 
										</coordinates>
									</LinearRing>
								</outerBoundaryIs>
							</Polygon>
							<MultiGeometry>
								<MultiGeometry>
									<Polygon>
										<tessellate>1</tessellate>
										<outerBoundaryIs>
											<LinearRing>
												<coordinates>
													120.5431874440579,15.4380018437064,0 120.5431877053019,15.43796377982229,0 120.5440961906116,15.43796054377625,0 120.5440953878156,15.43800057705615,0 120.5431874440579,15.4380018437064,0 
												</coordinates>
											</LinearRing>
										</outerBoundaryIs>
									</Polygon>
									<Polygon>
										<tessellate>1</tessellate>
										<outerBoundaryIs>
											<LinearRing>
												<coordinates>
													120.5431439276435,15.43795058097007,0 120.5431478426255,15.43791063129185,0 120.5439058225411,15.43791175186944,0 120.5439040171543,15.43795209951218,0 120.5431439276435,15.43795058097007,0 
												</coordinates>
											</LinearRing>
										</outerBoundaryIs>
									</Polygon>
									<Polygon>
										<tessellate>1</tessellate>
										<outerBoundaryIs>
											<LinearRing>
												<coordinates>
													120.5439181958582,15.43795318779267,0 120.5439202425455,15.43791509488645,0 120.5442248170706,15.43791031198748,0 120.5442229959198,15.43794878567825,0 120.5439181958582,15.43795318779267,0 
												</coordinates>
											</LinearRing>
										</outerBoundaryIs>
									</Polygon>
									<Polygon>
										<tessellate>1</tessellate>
										<outerBoundaryIs>
											<LinearRing>
												<coordinates>
													120.5431507040902,15.43790087435701,0 120.5431487248929,15.43785904910489,0 120.5439067511374,15.43786026890423,0 120.5439084973542,15.43789761300185,0 120.5431507040902,15.43790087435701,0 
												</coordinates>
											</LinearRing>
										</outerBoundaryIs>
									</Polygon>
									<Polygon>
										<tessellate>1</tessellate>
										<outerBoundaryIs>
											<LinearRing>
												<coordinates>
													120.543917237674,15.43790126574177,0 120.5439204686843,15.43786376458385,0 120.5443760900615,15.43786111048721,0 120.5443754253296,15.4379000470255,0 120.543917237674,15.43790126574177,0 
												</coordinates>
											</LinearRing>
										</outerBoundaryIs>
									</Polygon>
									<MultiGeometry>
										<Polygon>
											<tessellate>1</tessellate>
											<outerBoundaryIs>
												<LinearRing>
													<coordinates>
														120.5431428255213,15.4378496684409,0 120.5431452362002,15.43780972653386,0 120.5439062636584,15.43781055422197,0 120.5439057605193,15.43785123161787,0 120.5431428255213,15.4378496684409,0 
													</coordinates>
												</LinearRing>
											</outerBoundaryIs>
										</Polygon>
										<Polygon>
											<tessellate>1</tessellate>
											<outerBoundaryIs>
												<LinearRing>
													<coordinates>
														120.5439167270086,15.43785168010578,0 120.5439209419092,15.43780897968575,0 120.5445256293225,15.43780608580449,0 120.5445259789101,15.43784691289875,0 120.5439167270086,15.43785168010578,0 
													</coordinates>
												</LinearRing>
											</outerBoundaryIs>
										</Polygon>
										<Polygon>
											<tessellate>1</tessellate>
											<outerBoundaryIs>
												<LinearRing>
													<coordinates>
														120.5430620408934,15.43779450221576,0 120.5430615485421,15.43775311155687,0 120.5439671328194,15.43775949913691,0 120.5439665881156,15.43779594848153,0 120.5430620408934,15.43779450221576,0 
													</coordinates>
												</LinearRing>
											</outerBoundaryIs>
										</Polygon>
										<Polygon>
											<tessellate>1</tessellate>
											<outerBoundaryIs>
												<LinearRing>
													<coordinates>
														120.5439844612248,15.43779862548835,0 120.5439800326402,15.43775840449609,0 120.5445915479494,15.43775857811837,0 120.54459148906,15.43779175851578,0 120.5439844612248,15.43779862548835,0 
													</coordinates>
												</LinearRing>
											</outerBoundaryIs>
										</Polygon>
										<Polygon>
											<tessellate>1</tessellate>
											<outerBoundaryIs>
												<LinearRing>
													<coordinates>
														120.5430247667058,15.43774332956947,0 120.5430263201574,15.43770369521164,0 120.5440836247155,15.43770704675265,0 120.5440805891523,15.43774823600363,0 120.5430247667058,15.43774332956947,0 
													</coordinates>
												</LinearRing>
											</outerBoundaryIs>
										</Polygon>
									</MultiGeometry>
								</MultiGeometry>
								<Polygon>
									<tessellate>1</tessellate>
									<outerBoundaryIs>
										<LinearRing>
											<coordinates>
												120.544096790914,15.43774920879948,0 120.5440973985332,15.43770912253288,0 120.5447067057592,15.43770739136299,0 120.544705571923,15.43774934873898,0 120.544096790914,15.43774920879948,0 
											</coordinates>
										</LinearRing>
									</outerBoundaryIs>
								</Polygon>
								<Polygon>
									<tessellate>1</tessellate>
									<outerBoundaryIs>
										<LinearRing>
											<coordinates>
												120.5430243300407,15.43769164124893,0 120.543022796768,15.43765087422329,0 120.5440834779079,15.43765903849053,0 120.5440833448406,15.43769691589032,0 120.5430243300407,15.43769164124893,0 
											</coordinates>
										</LinearRing>
									</outerBoundaryIs>
								</Polygon>
								<MultiGeometry>
									<Polygon>
										<tessellate>1</tessellate>
										<outerBoundaryIs>
											<LinearRing>
												<coordinates>
													120.5440964121588,15.43769559036484,0 120.5440955067317,15.43765851838593,0 120.5447044540836,15.43765689354865,0 120.5447019483519,15.43769773371429,0 120.5440964121588,15.43769559036484,0 
												</coordinates>
											</LinearRing>
										</outerBoundaryIs>
									</Polygon>
									<Polygon>
										<tessellate>1</tessellate>
										<outerBoundaryIs>
											<LinearRing>
												<coordinates>
													120.5430118125198,15.437637479287,0 120.5430097846429,15.43759974339845,0 120.5440703685408,15.43760666541567,0 120.5440691793388,15.43764495401672,0 120.5430118125198,15.437637479287,0 
												</coordinates>
											</LinearRing>
										</outerBoundaryIs>
									</Polygon>
									<Polygon>
										<tessellate>1</tessellate>
										<outerBoundaryIs>
											<LinearRing>
												<coordinates>
													120.5440944247607,15.43764501751634,0 120.5440946449792,15.43760894135831,0 120.5446985591943,15.43760697419955,0 120.5446982971253,15.43764104071335,0 120.5440944247607,15.43764501751634,0 
												</coordinates>
											</LinearRing>
										</outerBoundaryIs>
									</Polygon>
									<Polygon>
										<tessellate>1</tessellate>
										<outerBoundaryIs>
											<LinearRing>
												<coordinates>
													120.543006460574,15.43758726526825,0 120.5430062994949,15.43754819441289,0 120.5440692490047,15.43755848127636,0 120.5440666467332,15.43759269271092,0 120.543006460574,15.43758726526825,0 
												</coordinates>
											</LinearRing>
										</outerBoundaryIs>
									</Polygon>
									<Polygon>
										<tessellate>1</tessellate>
										<outerBoundaryIs>
											<LinearRing>
												<coordinates>
													120.5440840684186,15.43759469406712,0 120.5440868555146,15.43755781499475,0 120.5446926134276,15.43755813548992,0 120.5446927196193,15.4375961023641,0 120.5440840684186,15.43759469406712,0 
												</coordinates>
											</LinearRing>
										</outerBoundaryIs>
									</Polygon>
									<Polygon>
										<tessellate>1</tessellate>
										<outerBoundaryIs>
											<LinearRing>
												<coordinates>
													120.5429180163345,15.43753439967804,0 120.5429215096075,15.43749531752437,0 120.5440575053796,15.43750711985952,0 120.5440603220383,15.43754481390958,0 120.5429180163345,15.43753439967804,0 
												</coordinates>
											</LinearRing>
										</outerBoundaryIs>
									</Polygon>
								</MultiGeometry>
								<Polygon>
									<tessellate>1</tessellate>
									<outerBoundaryIs>
										<LinearRing>
											<coordinates>
												120.5440761239867,15.4375466701658,0 120.5440747786034,15.43750925641641,0 120.5446833646313,15.43750624990072,0 120.5446810183522,15.43754437386766,0 120.5440761239867,15.4375466701658,0 
											</coordinates>
										</LinearRing>
									</outerBoundaryIs>
								</Polygon>
								<Polygon>
									<tessellate>1</tessellate>
									<outerBoundaryIs>
										<LinearRing>
											<coordinates>
												120.5440764165665,15.43749504815124,0 120.5440735699294,15.43745851619285,0 120.5446756815844,15.43745578769171,0 120.5446746150506,15.43749791004134,0 120.5440764165665,15.43749504815124,0 
											</coordinates>
										</LinearRing>
									</outerBoundaryIs>
								</Polygon>
								<Polygon>
									<tessellate>1</tessellate>
									<outerBoundaryIs>
										<LinearRing>
											<coordinates>
												120.542915871745,15.43748536452921,0 120.5429122933941,15.43744451898275,0 120.5440533600916,15.43745602031527,0 120.5440506629658,15.43749342115792,0 120.542915871745,15.43748536452921,0 
											</coordinates>
										</LinearRing>
									</outerBoundaryIs>
								</Polygon>
							</MultiGeometry>
							<Polygon>
								<tessellate>1</tessellate>
								<outerBoundaryIs>
									<LinearRing>
										<coordinates>
											120.5440649997626,15.43744504830108,0 120.5440650871388,15.43740463332842,0 120.5446688036705,15.43740642509623,0 120.5446680751691,15.43744227518328,0 120.5440649997626,15.43744504830108,0 
										</coordinates>
									</LinearRing>
								</outerBoundaryIs>
							</Polygon>
							<Polygon>
								<tessellate>1</tessellate>
								<outerBoundaryIs>
									<LinearRing>
										<coordinates>
											120.5440637787049,15.4373949483155,0 120.5440667045125,15.43735671753389,0 120.5445217953553,15.43735510208733,0 120.5445225896332,15.43739161945796,0 120.5440637787049,15.4373949483155,0 
										</coordinates>
									</LinearRing>
								</outerBoundaryIs>
							</Polygon>
							<MultiGeometry>
								<Polygon>
									<tessellate>1</tessellate>
									<outerBoundaryIs>
										<LinearRing>
											<coordinates>
												120.5437097223978,15.43734100667284,0 120.5437139479586,15.43730468791465,0 120.5443157117008,15.43730449487833,0 120.544313094993,15.43734137458337,0 120.5437097223978,15.43734100667284,0 
											</coordinates>
										</LinearRing>
									</outerBoundaryIs>
								</Polygon>
								<Polygon>
									<tessellate>1</tessellate>
									<outerBoundaryIs>
										<LinearRing>
											<coordinates>
												120.5437108364596,15.43728796636873,0 120.5437096911887,15.43725005040224,0 120.5440130818235,15.43725332065114,0 120.544012834088,15.43729286097722,0 120.5437108364596,15.43728796636873,0 
											</coordinates>
										</LinearRing>
									</outerBoundaryIs>
								</Polygon>
								<Polygon>
									<tessellate>1</tessellate>
									<outerBoundaryIs>
										<LinearRing>
											<coordinates>
												120.5437118321227,15.43724110912584,0 120.5437081448033,15.43720039300105,0 120.5438604738947,15.43719879488827,0 120.5438595852474,15.43724001231888,0 120.5437118321227,15.43724110912584,0 
											</coordinates>
										</LinearRing>
									</outerBoundaryIs>
								</Polygon>
								<Polygon>
									<tessellate>1</tessellate>
									<outerBoundaryIs>
										<LinearRing>
											<coordinates>
												120.5428465492525,15.43742943851583,0 120.5428444529479,15.43739297419431,0 120.5440555881319,15.43740427866281,0 120.5440512786243,15.43744446478681,0 120.5428465492525,15.43742943851583,0 
											</coordinates>
										</LinearRing>
									</outerBoundaryIs>
								</Polygon>
								<Polygon>
									<tessellate>1</tessellate>
									<outerBoundaryIs>
										<LinearRing>
											<coordinates>
												120.542841838606,15.43737947866652,0 120.542838874064,15.43734051869462,0 120.5440522239042,15.43735528292517,0 120.5440506535265,15.43738888022252,0 120.542841838606,15.43737947866652,0 
											</coordinates>
										</LinearRing>
									</outerBoundaryIs>
								</Polygon>
							</MultiGeometry>
						</MultiGeometry>
						<MultiGeometry>
							<Polygon>
								<tessellate>1</tessellate>
								<outerBoundaryIs>
									<LinearRing>
										<coordinates>
											120.5427896281472,15.43732667767793,0 120.5427875293979,15.43728823108383,0 120.5436934773233,15.43730453605951,0 120.543695918483,15.43733860276653,0 120.5427896281472,15.43732667767793,0 
										</coordinates>
									</LinearRing>
								</outerBoundaryIs>
							</Polygon>
							<Polygon>
								<tessellate>1</tessellate>
								<outerBoundaryIs>
									<LinearRing>
										<coordinates>
											120.542790404823,15.43727825075642,0 120.5427883112097,15.43723965818888,0 120.5436956585373,15.43724940100297,0 120.5436977806895,15.43728698526642,0 120.542790404823,15.43727825075642,0 
										</coordinates>
									</LinearRing>
								</outerBoundaryIs>
							</Polygon>
							<Polygon>
								<tessellate>1</tessellate>
								<outerBoundaryIs>
									<LinearRing>
										<coordinates>
											120.54278404079,15.43722638156115,0 120.5427874974956,15.43719044085261,0 120.5436940689308,15.43719989072311,0 120.5436921164869,15.43723831943606,0 120.54278404079,15.43722638156115,0 
										</coordinates>
									</LinearRing>
								</outerBoundaryIs>
							</Polygon>
							<Polygon>
								<tessellate>1</tessellate>
								<outerBoundaryIs>
									<LinearRing>
										<coordinates>
											120.5427089813946,15.43717716431255,0 120.5427089837928,15.43713870457088,0 120.5436122588195,15.43714792985344,0 120.5436139535493,15.4371879757518,0 120.5427089813946,15.43717716431255,0 
										</coordinates>
									</LinearRing>
								</outerBoundaryIs>
							</Polygon>
							<Polygon>
								<tessellate>1</tessellate>
								<outerBoundaryIs>
									<LinearRing>
										<coordinates>
											120.5426829456982,15.43712550516145,0 120.542682171496,15.43708990529772,0 120.5434365119854,15.43709951559153,0 120.5434344254824,15.43713548651871,0 120.5426829456982,15.43712550516145,0 
										</coordinates>
									</LinearRing>
								</outerBoundaryIs>
							</Polygon>
							<Polygon>
								<tessellate>1</tessellate>
								<outerBoundaryIs>
									<LinearRing>
										<coordinates>
											120.542651491405,15.43707566984831,0 120.5426480995439,15.43704006260201,0 120.5434074579663,15.43704474581441,0 120.5434036302447,15.43708506007031,0 120.542651491405,15.43707566984831,0 
										</coordinates>
									</LinearRing>
								</outerBoundaryIs>
							</Polygon>
							<Polygon>
								<tessellate>1</tessellate>
								<outerBoundaryIs>
									<LinearRing>
										<coordinates>
											120.5426197937293,15.43702538636508,0 120.5426198644116,15.43698872511913,0 120.5433772820579,15.43699604405814,0 120.5433739146167,15.43703209969499,0 120.5426197937293,15.43702538636508,0 
										</coordinates>
									</LinearRing>
								</outerBoundaryIs>
							</Polygon>
						</MultiGeometry>
						<Polygon>
							<tessellate>1</tessellate>
							<outerBoundaryIs>
								<LinearRing>
									<coordinates>
										120.5425978693204,15.4369745286259,0 120.5425998002077,15.43693786652608,0 120.5433545914454,15.43694469637309,0 120.5433546752488,15.43698227019451,0 120.5425978693204,15.4369745286259,0 
									</coordinates>
								</LinearRing>
							</outerBoundaryIs>
						</Polygon>
						<Polygon>
							<tessellate>1</tessellate>
							<outerBoundaryIs>
								<LinearRing>
									<coordinates>
										120.5425954193846,15.43692370765918,0 120.5425942381924,15.43688710851426,0 120.5433533245281,15.43689360888358,0 120.543352939235,15.43693194999545,0 120.5425954193846,15.43692370765918,0 
									</coordinates>
								</LinearRing>
							</outerBoundaryIs>
						</Polygon>
						<Polygon>
							<tessellate>1</tessellate>
							<outerBoundaryIs>
								<LinearRing>
									<coordinates>
										120.5425950565746,15.43687599096921,0 120.5425940527124,15.43683745343328,0 120.5432719467733,15.43684238129051,0 120.5432717716229,15.43687970484384,0 120.5425950565746,15.43687599096921,0 
									</coordinates>
								</LinearRing>
							</outerBoundaryIs>
						</Polygon>
						<Polygon>
							<tessellate>1</tessellate>
							<outerBoundaryIs>
								<LinearRing>
									<coordinates>
										120.5425718782939,15.4368260364494,0 120.5425697156334,15.43678600078315,0 120.5432789901556,15.43679035804002,0 120.5432806510656,15.4368269548585,0 120.5425718782939,15.4368260364494,0 
									</coordinates>
								</LinearRing>
							</outerBoundaryIs>
						</Polygon>
					</MultiGeometry>
					<Polygon>
						<tessellate>1</tessellate>
						<outerBoundaryIs>
							<LinearRing>
								<coordinates>
									120.5424773277774,15.43677158635763,0 120.5424750951314,15.43673314107033,0 120.5432132440657,15.43674018750037,0 120.5432125484193,15.43677459004895,0 120.5424773277774,15.43677158635763,0 
								</coordinates>
							</LinearRing>
						</outerBoundaryIs>
					</Polygon>
					<Polygon>
						<tessellate>1</tessellate>
						<outerBoundaryIs>
							<LinearRing>
								<coordinates>
									120.5424559347333,15.43671668667461,0 120.5424569922162,15.43667764736682,0 120.5430562344426,15.43668655897526,0 120.5430586297175,15.43672329663368,0 120.5424559347333,15.43671668667461,0 
								</coordinates>
							</LinearRing>
						</outerBoundaryIs>
					</Polygon>
					<Polygon>
						<tessellate>1</tessellate>
						<outerBoundaryIs>
							<LinearRing>
								<coordinates>
									120.5424503133887,15.4366601379019,0 120.5424506479039,15.43662682467091,0 120.5427541185354,15.43663421752633,0 120.5427531137873,15.43666879711457,0 120.5424503133887,15.4366601379019,0 
								</coordinates>
							</LinearRing>
						</outerBoundaryIs>
					</Polygon>
					<MultiGeometry>
						<Polygon>
							<tessellate>1</tessellate>
							<outerBoundaryIs>
								<LinearRing>
									<coordinates>
										120.5444840412649,15.4372914662494,0 120.5444871133516,15.4372536530378,0 120.5446357485742,15.43725188071474,0 120.5446350801731,15.43728826108148,0 120.5444840412649,15.4372914662494,0 
									</coordinates>
								</LinearRing>
							</outerBoundaryIs>
						</Polygon>
						<Polygon>
							<tessellate>1</tessellate>
							<outerBoundaryIs>
								<LinearRing>
									<coordinates>
										120.5443562241128,15.43724178738614,0 120.5443575445609,15.43720310282959,0 120.5446570925396,15.43719816854767,0 120.5446561776605,15.43723896627191,0 120.5443562241128,15.43724178738614,0 
									</coordinates>
								</LinearRing>
							</outerBoundaryIs>
						</Polygon>
						<Polygon>
							<tessellate>1</tessellate>
							<outerBoundaryIs>
								<LinearRing>
									<coordinates>
										120.544186394966,15.43718916031778,0 120.5441858107646,15.43715312290584,0 120.5446458833984,15.43714887334629,0 120.5446464347044,15.43718511972823,0 120.544186394966,15.43718916031778,0 
									</coordinates>
								</LinearRing>
							</outerBoundaryIs>
						</Polygon>
						<Polygon>
							<tessellate>1</tessellate>
							<outerBoundaryIs>
								<LinearRing>
									<coordinates>
										120.5438860507662,15.43713911020369,0 120.5438837876895,15.43709900277758,0 120.5446465005222,15.43709171649213,0 120.544646412573,15.43713060229122,0 120.5438860507662,15.43713911020369,0 
									</coordinates>
								</LinearRing>
							</outerBoundaryIs>
						</Polygon>
						<Polygon>
							<tessellate>1</tessellate>
							<outerBoundaryIs>
								<LinearRing>
									<coordinates>
										120.543727604807,15.43708850173502,0 120.5437237088414,15.43704892155034,0 120.544638590421,15.43704027574151,0 120.5446379398854,15.43707814288921,0 120.543727604807,15.43708850173502,0 
									</coordinates>
								</LinearRing>
							</outerBoundaryIs>
						</Polygon>
						<Polygon>
							<tessellate>1</tessellate>
							<outerBoundaryIs>
								<LinearRing>
									<coordinates>
										120.5437162213926,15.43703270452038,0 120.543715493082,15.43699866738598,0 120.54462624319,15.43698941122254,0 120.5446225308632,15.43702759838323,0 120.5437162213926,15.43703270452038,0 
									</coordinates>
								</LinearRing>
							</outerBoundaryIs>
						</Polygon>
						<Polygon>
							<tessellate>1</tessellate>
							<outerBoundaryIs>
								<LinearRing>
									<coordinates>
										120.5435518677668,15.43698429742173,0 120.5435531649074,15.43694414825733,0 120.544618279649,15.43693801341461,0 120.5446212711372,15.43697329837872,0 120.5435518677668,15.43698429742173,0 
									</coordinates>
								</LinearRing>
							</outerBoundaryIs>
						</Polygon>
						<Polygon>
							<tessellate>1</tessellate>
							<outerBoundaryIs>
								<LinearRing>
									<coordinates>
										120.5435440567542,15.43693103009978,0 120.5435466482369,15.4368932115021,0 120.5446088916392,15.43688495037636,0 120.5446098293234,15.43692227596743,0 120.5435440567542,15.43693103009978,0 
									</coordinates>
								</LinearRing>
							</outerBoundaryIs>
						</Polygon>
					</MultiGeometry>
				</MultiGeometry>
				<Polygon>
					<tessellate>1</tessellate>
					<outerBoundaryIs>
						<LinearRing>
							<coordinates>
								120.5435333768277,15.43687655734082,0 120.5435380483134,15.43683953923641,0 120.5446013980488,15.43683284518671,0 120.5446020051318,15.43686796969812,0 120.5435333768277,15.43687655734082,0 
							</coordinates>
						</LinearRing>
					</outerBoundaryIs>
				</Polygon>
				<Polygon>
					<tessellate>1</tessellate>
					<outerBoundaryIs>
						<LinearRing>
							<coordinates>
								120.5435210267584,15.43682777712169,0 120.5435184458775,15.43678737050028,0 120.5445936568551,15.43678285631735,0 120.5445960897271,15.43681689721541,0 120.5435210267584,15.43682777712169,0 
							</coordinates>
						</LinearRing>
					</outerBoundaryIs>
				</Polygon>
				<Polygon>
					<tessellate>1</tessellate>
					<outerBoundaryIs>
						<LinearRing>
							<coordinates>
								120.5433618323225,15.43677508858343,0 120.5433617437949,15.43673876534055,0 120.5445881856472,15.43672534756423,0 120.5445887187665,15.43676508346499,0 120.5433618323225,15.43677508858343,0 
							</coordinates>
						</LinearRing>
					</outerBoundaryIs>
				</Polygon>
				<Polygon>
					<tessellate>1</tessellate>
					<outerBoundaryIs>
						<LinearRing>
							<coordinates>
								120.5433575486431,15.43672467113209,0 120.5433561755774,15.43668830796299,0 120.5445779818267,15.43667665745267,0 120.5445754358217,15.43671403545263,0 120.5433575486431,15.43672467113209,0 
							</coordinates>
						</LinearRing>
					</outerBoundaryIs>
				</Polygon>
				<Polygon>
					<tessellate>1</tessellate>
					<outerBoundaryIs>
						<LinearRing>
							<coordinates>
								120.5433477804903,15.43667383701234,0 120.5433489798904,15.43663503315786,0 120.5445711025095,15.43662608042034,0 120.5445718132437,15.43666224681213,0 120.5433477804903,15.43667383701234,0 
							</coordinates>
						</LinearRing>
					</outerBoundaryIs>
				</Polygon>
				<Polygon>
					<tessellate>1</tessellate>
					<outerBoundaryIs>
						<LinearRing>
							<coordinates>
								120.5436580214734,15.43661254513038,0 120.543657997367,15.43657385400884,0 120.5445699762538,15.43657105987326,0 120.5445713319578,15.43660796367482,0 120.5436580214734,15.43661254513038,0 
							</coordinates>
						</LinearRing>
					</outerBoundaryIs>
				</Polygon>
				<Polygon>
					<tessellate>1</tessellate>
					<outerBoundaryIs>
						<LinearRing>
							<coordinates>
								120.5424313768432,15.43661240174372,0 120.5424284829107,15.43657667567694,0 120.5436437553119,15.4365775885252,0 120.5436417895663,15.43661354324131,0 120.5424313768432,15.43661240174372,0 
							</coordinates>
						</LinearRing>
					</outerBoundaryIs>
				</Polygon>
			</MultiGeometry>
			<Polygon>
				<tessellate>1</tessellate>
				<outerBoundaryIs>
					<LinearRing>
						<coordinates>
							120.5436470154703,15.43655797009471,0 120.5436465038336,15.43652674552771,0 120.5445587133371,15.43652206945823,0 120.5445566232338,15.43655689653527,0 120.5436470154703,15.43655797009471,0 
						</coordinates>
					</LinearRing>
				</outerBoundaryIs>
			</Polygon>
			<Polygon>
				<tessellate>1</tessellate>
				<outerBoundaryIs>
					<LinearRing>
						<coordinates>
							120.5424238598345,15.43656227152646,0 120.5424221914036,15.43652324414495,0 120.543633522216,15.43652664872644,0 120.5436349909039,15.43656119147974,0 120.5424238598345,15.43656227152646,0 
						</coordinates>
					</LinearRing>
				</outerBoundaryIs>
			</Polygon>
			<Polygon>
				<tessellate>1</tessellate>
				<outerBoundaryIs>
					<LinearRing>
						<coordinates>
							120.5431340260788,15.43625264406077,0 120.5431399707044,15.43621083659426,0 120.5445072552759,15.43620652500572,0 120.5445090734107,15.43624979337633,0 120.5431340260788,15.43625264406077,0 
						</coordinates>
					</LinearRing>
				</outerBoundaryIs>
			</Polygon>
			<Polygon>
				<tessellate>1</tessellate>
				<outerBoundaryIs>
					<LinearRing>
						<coordinates>
							120.5428413242667,15.43630726104974,0 120.5428450585821,15.43626589569433,0 120.544518251797,15.43626061726158,0 120.5445225789344,15.43629996472993,0 120.5428413242667,15.43630726104974,0 
						</coordinates>
					</LinearRing>
				</outerBoundaryIs>
			</Polygon>
			<Polygon>
				<tessellate>1</tessellate>
				<outerBoundaryIs>
					<LinearRing>
						<coordinates>
							120.542693847429,15.43635479704175,0 120.5426947538739,15.43631991403459,0 120.5436037944144,15.436314651685,0 120.5436046868384,15.43635052557694,0 120.542693847429,15.43635479704175,0 
						</coordinates>
					</LinearRing>
				</outerBoundaryIs>
			</Polygon>
			<Polygon>
				<tessellate>1</tessellate>
				<outerBoundaryIs>
					<LinearRing>
						<coordinates>
							120.5436176212168,15.43635437548475,0 120.543616371107,15.43632020628085,0 120.5445255138268,15.4363149610897,0 120.5445257131864,15.43634799069961,0 120.5436176212168,15.43635437548475,0 
						</coordinates>
					</LinearRing>
				</outerBoundaryIs>
			</Polygon>
			<Polygon>
				<tessellate>1</tessellate>
				<outerBoundaryIs>
					<LinearRing>
						<coordinates>
							120.5436240490773,15.43640588685353,0 120.543625194274,15.43636711585159,0 120.5445342586664,15.43636470657271,0 120.5445351760537,15.43640125209583,0 120.5436240490773,15.43640588685353,0 
						</coordinates>
					</LinearRing>
				</outerBoundaryIs>
			</Polygon>
			<Polygon>
				<tessellate>1</tessellate>
				<outerBoundaryIs>
					<LinearRing>
						<coordinates>
							120.5423939712041,15.43640465835837,0 120.5423994469582,15.43636970024873,0 120.5436109691017,15.43636995408578,0 120.5436121943637,15.43640624375636,0 120.5423939712041,15.43640465835837,0 
						</coordinates>
					</LinearRing>
				</outerBoundaryIs>
			</Polygon>
			<Polygon>
				<tessellate>1</tessellate>
				<outerBoundaryIs>
					<LinearRing>
						<coordinates>
							120.5423257668142,15.43645683223671,0 120.5423264433655,15.43641879487657,0 120.5436126776583,15.43641995807297,0 120.543614480423,15.43645908796226,0 120.5423257668142,15.43645683223671,0 
						</coordinates>
					</LinearRing>
				</outerBoundaryIs>
			</Polygon>
			<Polygon>
				<tessellate>1</tessellate>
				<outerBoundaryIs>
					<LinearRing>
						<coordinates>
							120.5436275570387,15.43645565483869,0 120.5436274976524,15.43641951066159,0 120.5445393180427,15.43641563933945,0 120.5445380849821,15.43645274698552,0 120.5436275570387,15.43645565483869,0 
						</coordinates>
					</LinearRing>
				</outerBoundaryIs>
			</Polygon>
			<Polygon>
				<tessellate>1</tessellate>
				<outerBoundaryIs>
					<LinearRing>
						<coordinates>
							120.5423357053341,15.43650447213455,0 120.5423370205287,15.43647060238552,0 120.5436240674863,15.43647497423356,0 120.5436219973743,15.43651118759437,0 120.5423357053341,15.43650447213455,0 
						</coordinates>
					</LinearRing>
				</outerBoundaryIs>
			</Polygon>
			<Polygon>
				<tessellate>1</tessellate>
				<outerBoundaryIs>
					<LinearRing>
						<coordinates>
							120.5436374448118,15.43650748898447,0 120.5436389647054,15.43647419658371,0 120.5445475634832,15.43646957298889,0 120.5445457779116,15.43650670624491,0 120.5436374448118,15.43650748898447,0 
						</coordinates>
					</LinearRing>
				</outerBoundaryIs>
			</Polygon>
		</MultiGeometry>
		<atom:link rel="app" href="https://www.google.com/earth/about/versions/#earth-pro" title="Google Earth Pro 7.3.7.1327"></atom:link>
	</Placemark>
</Document>
</kml>
